X,Y,FID,Plant_Name,Owner,Operator,City,State,County,ZipCode,Period,Cap_MMcfd,Plant_Flow,BTU_Conten,Dry_Stor,NGL_Stor,Longitude,Latitude,Source
-105.77784,43.85235,1,50 Buttes Processing Facility,"Thunder Creek Gas Services,L.L.C.","Thunder Creek Gas Services, L.L.C.",Gillette,WY,Campbell,82718,2017,90,81,1274,0,15657,-105.77784,43.85235,"EIA-757, Natural Gas Processing Plant Survey"
-100.11626,35.5464,2,Ajax Plant,"Enbridge Pipelines (Texas Gathering), L.P.",Enbridge Pipelines (Texas Gathering) L.P.,Wheeler,TX,Wheeler,79096,2017,150,150,1192,0,0,-100.11626,35.5464,"EIA-757, Natural Gas Processing Plant Survey"
-95.51805,31.29948,3,Alamo,La Grange Acquisition LP,Energy Transfer Company,Crockett,TX,Houston,75835,2017,200,125,1140,0,0,-95.51805,31.29948,"EIA-757, Natural Gas Processing Plant Survey"
-100.14509,35.61864,4,Allison Gas Plant,Enbridge Pipelines (Texas Gathering) L.P., , ,TX,Wheeler,79003,2017,150,90,1169,0,0,-100.14509,35.61864,"EIA-757, Natural Gas Processing Plant Survey"
-111.95981,48.73838,5,Aloe Ventures,Lamarsa Corp,Lamarsa Corp,Shelby,MT,Toole,59474-0766,2017,600,600,1000,0,0,-111.95981,48.73838,"EIA-757, Natural Gas Processing Plant Survey"
-110.32903,40.35807,6,Altamont Gas Plant,Kinder Morgan,Kinder Morgan - Altamont,Altamont,UT,Duchesne,84001,2017,80,76,1200,0,22476,-110.32903,40.35807,"EIA-757, Natural Gas Processing Plant Survey"
-97.79838,35.1627,7,Amber Gas Plant, , ,Amber,OK,Grady,73004-5511,2017,21,6,1350,0,380,-97.79838,35.1627,"EIA-757, Natural Gas Processing Plant Survey"
-111.04083,41.06722,8,Anschutz Ranch East,Merit Energy Company,Merit Energy Company,Evanston,WY,Uinta,82930,2017,55,10,1026,0,10000,-111.04083,41.06722,"EIA-757, Natural Gas Processing Plant Survey"
-99.78365,35.83074,9,Antelope Hills Natural Gas Processing,ONEOK,ONEOK,Crawford,OK,Roger Mills,73638,2017,50,48,1175,0,650,-99.78365,35.83074,"EIA-757, Natural Gas Processing Plant Survey"
-100.1206,35.9983,10,Antelope Hills Plant,ETC Field Services LLC,ETC Field Services LLC,Canadian,TX,Hemphill,79014,2017,135,79,1287,0,864,-100.1206,35.9983,"EIA-757, Natural Gas Processing Plant Survey"
-99.21717,35.7516,11,Arapaho Plants 1-2-3,MarkWest Oklahoma Gas Company LLC,MarkWest Oklahoma Gas Company LLC,Butler,OK,Custer,73625-5021,2017,225,210,1220,0,0,-99.21717,35.7516,"EIA-757, Natural Gas Processing Plant Survey"
-97.03916,29.13389,12,Armstrong Plant,Enterprise Hydrocarbons LP,Enterprise Products Operating LLC,Yoakum,TX,Eddy,88256,2017,200,50,1060,0,1200,-97.03916,29.13389,"EIA-757, Natural Gas Processing Plant Survey"
-103.1552,31.31371,13,Arrowhead Plant,"ETC Texas Pipeline, Ltd.","ETC Texas Pipeline, Ltd.",Coyanosa,TX,Reeves,79730,2017,220,196,1258,0,1850,-103.1552,31.31371,"EIA-757, Natural Gas Processing Plant Survey"
-104.21071,32.75642,14,Artesia,DCP Midstream,DCP Midstream,Artesia,NM,Eddy,88210,2017,90,80,1200,0,2573,-104.21071,32.75642,"EIA-757, Natural Gas Processing Plant Survey"
-87.43715,31.17234,15,Atmore Plant,Gas Processors Inc,Gas Processors Inc,Atmore,AL,Escambia,39502,2017,9,9,1275,0,2857,-87.43715,31.17234,"EIA-757, Natural Gas Processing Plant Survey"
-96.87799,29.93346,16,Austin Giddings,"DCP Operating Company, LP","DCP Operating Company, LP",La Grange,TX,Fayette,78945,2017,95,90,1218,0,7238,-96.87799,29.93346,"EIA-757, Natural Gas Processing Plant Survey"
-88.30556,41.41305,17,Aux Sable Liquid Products,Enbridge, ,Morris,IL,Grundy,60450,2017,2100,1633,1131,0,200000,-88.30556,41.41305,"EIA-757, Natural Gas Processing Plant Survey"
-102.22158,48.29935,18,"Aux Sable Midstream, LLC",Enbridge, ,Palermo,ND,Mountrail,58769,2017,80,56,1492,0,6429,-102.22158,48.29935,"EIA-757, Natural Gas Processing Plant Survey"
-97.59602,32.82262,19,Azle Plant, ,"Enlink Texas Processing, LP",Azle,TX,Parker,76020,2017,50,0,0,0,1373,-97.59602,32.82262,"EIA-757, Natural Gas Processing Plant Survey"
-86.32218,44.26337,20,Aztec Manistee,Aztec Producing Company,Aztec Producing Company,Manistee,MI,Manistee,49660,2017,5,0,1340,0,1429,-86.32218,44.26337,"EIA-757, Natural Gas Processing Plant Survey"
-103.66757,46.08853,21,Badlands Gas Plant,Hiland Partners Holdings LLC,Kinder Morgan,Rhame,ND,Bowman,58651-9789,2017,52,19,283,0,6667,-103.66757,46.08853,"EIA-757, Natural Gas Processing Plant Survey"
-104.25667,46.38333,22,Baker Natural Gas Processing Plant,ONEOK,ONEOK,Baker,MT,Fallon,59313,2017,6,2,1500,0,3200,-104.25667,46.38333,"EIA-757, Natural Gas Processing Plant Survey"
-104.26334,47.79031,23,Bakken Gas Plant,Hiland Partners Holdings  LLC,Kinder Morgan,Sidney,MT,Richland,59270,2017,25,22,1421,0,7386,-104.26334,47.79031,"EIA-757, Natural Gas Processing Plant Survey"
-93.63701,29.76523,24,Barracuda Gas Plant,Targa Resources,Targa Resources,Cameron,LA,Cameron,70631,2017,200,81,1059,0,98,-93.63701,29.76523,"EIA-757, Natural Gas Processing Plant Survey"
-96.80477,35.94411,25,Battle Ridge Plant,"EnLink Midstream Services, LLC","EnLink Midstream Services, LLC",Cushing,OK,Nacogdoches,74023,2017,95,50,1200,0,802,-96.80477,35.94411,"EIA-757, Natural Gas Processing Plant Survey"
-102.78696,47.44118,26,Bear Creek Natural Gas Processing Plant,ONEOK,ONEOK,Killdeer,ND,Dunn,58640,2017,80,65,1400,0,0,-102.78696,47.44118,"EIA-757, Natural Gas Processing Plant Survey"
-101.49024,31.95702,27,Bearkat Plant, ,Coronado Midstream LLC,Garden City,TX,Glasscock,79739,2017,60,40,1250,0,4213,-101.49024,31.95702,"EIA-757, Natural Gas Processing Plant Survey"
-84.818,44.559,28,Beaver Creek,"Breitburn Operating, L.P.","Breitburn Operating, L.P.",Grayling,MI,Crawford,49738,2017,2,2,0,0,714,-84.818,44.559,"EIA-757, Natural Gas Processing Plant Survey"
-100.9525,36.7625,29,Beaver Gas Processing,ETC Field Services LLC,ETC Field Services LLC,Beaver,OK,Beaver,73932,2017,95,68,1200,0,2715,-100.9525,36.7625,"EIA-757, Natural Gas Processing Plant Survey"
-94.26248,32.18813,30,Beckville Plant,Enbridge G & P (East Texas) L.P.,Enbridge G & P (East Texas) L.P.,Beckville,TX,Panola,75631,2017,150,119,1073,0,2700,-94.26248,32.18813,"EIA-757, Natural Gas Processing Plant Survey"
-103.20735,46.85974,31,Belfield Gas Plant,Andeavor Field Services LLC,Andeavor Field Services LLC,Belfield,ND,Stark,58622,2017,40,20,1556,0,16600,-103.20735,46.85974,"EIA-757, Natural Gas Processing Plant Survey"
-97.42638,36.62188,32,Bellmon Plant,Superior Pipeline Company LLC,Superior Pipeline Company LLC,Tonkawa,OK,Kay,74653,2017,90,27,1190,0,700,-97.42638,36.62188,"EIA-757, Natural Gas Processing Plant Survey"
-119.75778,35.47436,33,Belridge Gas Plant,Seneca Resources Corporation,Seneca Resources Corporation,McKittrick,CA,Kern,93251,2017,14,8,1148,0,8346,-119.75778,35.47436,"EIA-757, Natural Gas Processing Plant Survey"
-101.77962,31.36209,34,Benedum Complex,WTG Gas Processing LP,Wtg South Permian Midstream LLC,Midkiff,TX,Upton,79755,2017,360,242,1278,0,750,-101.77962,31.36209,"EIA-757, Natural Gas Processing Plant Survey"
-81.29131,39.77323,35,Berne Natural Gas Processing Plant,"Blue Racer Midstream, LLC","Blue Racer Midstream, LLC",Lewisville,OH,Monroe,43754,2017,440,244,1252,0,2600,-81.29131,39.77323,"EIA-757, Natural Gas Processing Plant Survey"
-87.36302,31.07158,36,Big Escambia Creek Gas Processing Plant,"Escambia Operating Company, LLC","Vanguard Natural Resourses, Inc.",Atmore,AL,Escambia,36502,2017,50,29,900,0,34000,-87.36302,31.07158,"EIA-757, Natural Gas Processing Plant Survey"
-107.97333,40.9211,37,Big Hole Plant,Wolverine Resources LLC,Wolverine Resources LLC, ,CO,Moffat,81625,2017,305,0,0,0,0,-107.97333,40.9211,"EIA-757, Natural Gas Processing Plant Survey"
-93.28176,30.11839,38,Big Lake Gas Plant,Targa Midstream Services LLC,"Targa Midstream Services, LLC",Lake Charles,LA,Calcasieu,70605,2017,200,8,1067,0,0,-93.28176,30.11839,"EIA-757, Natural Gas Processing Plant Survey"
-101.36349,31.10967,39,Big Lake Plant,"Lucid Energy WesTex, LLC", ,Big Lake,TX,Reagan,76932,2017,200,140,1150,0,0,-101.36349,31.10967,"EIA-757, Natural Gas Processing Plant Survey"
-98.32443,35.31528,40,Binger,Mustang Ventures Company,"Mustang Gas Products, LLC",Binger,OK,Caddo,73009,2017,15,8,1225,0,0,-98.32443,35.31528,"EIA-757, Natural Gas Processing Plant Survey"
-98.29525,35.2967,41,Binger Operations LLC,Legacy Reserves,Binger Operations LLC,Binger,OK,Caddo,73009,2017,15,13,0,0,83,-98.29525,35.2967,"EIA-757, Natural Gas Processing Plant Survey"
-105.84101,44.1677,42,Bison Treating Facility,"Western Gas Partners, LP","Western Gas Partners, LP",Gillette,WY,Campbell,82718,2017,270,137,927,0,0,-105.84101,44.1677,"EIA-757, Natural Gas Processing Plant Survey"
-110.04911,41.55479,43,Blacks Fork Gas Plant,Green River Processing,"Green River Processing, LLC",Granger,WY,Sweetwater,52934,2017,765,443,1092,0,18334,-110.04911,41.55479,"EIA-757, Natural Gas Processing Plant Survey"
-102.46233,31.44153,44,Block 31 Plant,Oxy, ,Crane,TX,Crane,79731,2017,41,41,550,0,718,-102.46233,31.44153,"EIA-757, Natural Gas Processing Plant Survey"
-82.61665,37.53132,45,Boldman,Markwest Energy Partners lp,"Markwest Energy Partners, L.P.",Pikeville,KY,Pike,41501-7067,2017,70,32,1308,0,2857,-82.61665,37.53132,"EIA-757, Natural Gas Processing Plant Survey"
-103.39339,31.45561,46,Bone Springs Gas Processing Plant,Ranch Westex JV LLC,Energy Transfer Company,Barstow,TX,Ward,79719,2017,120,102,1250,0,5700,-103.39339,31.45561,"EIA-757, Natural Gas Processing Plant Survey"
-97.70121,34.80168,47,Bradley,Enable Products LLC,Enable Products LLC,Bradley,OK,Grady,73011,2017,400,342,1229,0,0,-97.70121,34.80168,"EIA-757, Natural Gas Processing Plant Survey"
-99.25939,28.42054,48,Brasada Gas Plant,Western Gas Partners,Anadarko Petroleum,Cotulla,TX,LaSalle,78014,2017,230,230,1300,0,0,-99.25939,28.42054,"EIA-757, Natural Gas Processing Plant Survey"
-97.80311,33.19606,49,Bridgeport Plant, ,"Enlink Midstream Services, LLC",Bridgeport,TX,Wise,76426,2017,800,515,1170,0,48415,-97.80311,33.19606,"EIA-757, Natural Gas Processing Plant Survey"
-98.41484,33.72994,50,Bridwell River Ranch Gas Plant,Bridwell Oil Company,Bridwell Oil Company, ,TX,Clay, ,2017,1,1,1200,0,700,-98.41484,33.72994,"EIA-757, Natural Gas Processing Plant Survey"
-93.96112,31.06255,51,Brookeland Plant,ETC Field Services LLC,ETC Field Services LLC,Brookeland,TX,Jasper,75931,2017,95,70,1165,0,0,-93.96112,31.06255,"EIA-757, Natural Gas Processing Plant Survey"
-110.28999,40.05735,52,Brundage Canyon Gas Plant,Berry Petroleum Company LLC,Berry Petroleum Company LLC,N/A,UT,Duchesne, ,2017,30,21,1180,0,4285,-110.28999,40.05735,"EIA-757, Natural Gas Processing Plant Survey"
-107.49905,40.48606,53,Buck Peak,Peakview  Oil,"Custom Energy Construction, Inc.",Craig,CO,Moffat,81625,2017,0,0,0,0,4619,-107.49905,40.48606,"EIA-757, Natural Gas Processing Plant Survey"
-103.51008,32.78611,54,Buckeye CO2 Plant,"Chevron USA, Inc.",Chevron,Lovington,NM,Lea,88260,2017,55,53,230,0,700,-103.51008,32.78611,"EIA-757, Natural Gas Processing Plant Survey"
-105.46645,42.74467,55,Bucking Horse Gas Plant,Williams Companies,Williams,Douglas,WY,Converse,82633,2017,120,56,1284,0,0,-105.46645,42.74467,"EIA-757, Natural Gas Processing Plant Survey"
-99.8214,35.3737,56,Buffalo Creek,MarkWest Oklahoma Gas Company LLC,MarkWest Oklahoma Gas Company LLC,Sayre,OK,Roger Mills,73662,2017,200,165,1220,0,0,-99.8214,35.3737,"EIA-757, Natural Gas Processing Plant Survey"
-91.53191,29.57033,57,Burns Point Gas Plant,Enterprise Gas Processing LLC,"Enterprise Gas Processing, LLC",Franklin,LA,St. Mary,70538,2017,120,60,1070,0,500,-91.53191,29.57033,"EIA-757, Natural Gas Processing Plant Survey"
-81.02597,40.25892,58,Cadiz Plant,MarkWest Liberty Midstream & Resource,MarkWest Liberty Midstream & Resources,Cadiz,OH,Harrison,43907,2017,525,509,1184,0,0,-81.02597,40.25892,"EIA-757, Natural Gas Processing Plant Survey"
-119.47866,35.27788,59,California-San Joaquin Basin Onshore CA10,California Resources Corporation,Elk Hills Power LLC,Tupman,CA,Kern,93276,2017,225,215,1220,0,110000,-119.47866,35.27788,"EIA-757, Natural Gas Processing Plant Survey"
-98.15483,35.66683,60,Calumet,Enable Products LLC,Enable Products LLC,Calumet,OK,Canadian,73014,2017,250,89,1116,0,5952,-98.15483,35.66683,"EIA-757, Natural Gas Processing Plant Survey"
-100.94181,36.50358,61,Camrick Gas Plant,"Camrick Gas Processing Company, LLC",Carrera Operating Company,Balko,OK,Beaver,73931,2017,10,4,1140,0,500,-100.94181,36.50358,"EIA-757, Natural Gas Processing Plant Survey"
-98.09698,35.53513,62,Cana Plant, ,"Enlink Midstream Services, LLC",Calumet,OK,Canadian,73014,2017,420,371,1189,0,6095,-98.09698,35.53513,"EIA-757, Natural Gas Processing Plant Survey"
-98.1393,35.58986,63,Canadian Valley Natural Gas Processing,ONEOK,ONEOK,Calumet,OK,Canadian,73014,2017,250,249,1230,1,500,-98.1393,35.58986,"EIA-757, Natural Gas Processing Plant Survey"
-99.30167,35.30917,64,Canute,Enable Products LLC,Enable Products LLC,Canute,OK,Washita,73626,2017,60,32,1128,0,0,-99.30167,35.30917,"EIA-757, Natural Gas Processing Plant Survey"
-93.61304,32.34498,65,Capiana Plant,Enable Midstream Partners,Enable Midstream Partners,Shreveport,LA,Caddo,71115,2017,25,15,1050,0,715,-93.61304,32.34498,"EIA-757, Natural Gas Processing Plant Survey"
-101.13585,35.52346,66,Cargray Plant,ETC Field Services LLC,ETC Field Services LLC,White Deer,TX,Carson,79097,2017,30,15,1340,0,19824,-101.13585,35.52346,"EIA-757, Natural Gas Processing Plant Survey"
-103.89507,32.65397,67,Carlsbad Chaparral Gas Plant,"Enterprise Field Services, LLC",Enterprise Field Services LLC,Carlsbad,NM,Eddy,88220,2017,40,23,1150,0,0,-103.89507,32.65397,"EIA-757, Natural Gas Processing Plant Survey"
-98.53285,36.57609,68,Carmen Gas Processing Plant,"Tall Oak Midcon, LLC","Tall Oak Midcon, LLC",Carmen,OK,Alfalfa,73726,2017,60,29,1185,0,715,-98.53285,36.57609,"EIA-757, Natural Gas Processing Plant Survey"
-110.91311,41.57339,69,Carter Creek Gas Plant,Hilcorp Energy Development LP,Hilcorp Energy Development LP,Evanston,WY,Uinta,82930,2017,62,45,1010,0,75,-110.91311,41.57339,"EIA-757, Natural Gas Processing Plant Survey"
-97.65489,35.74806,70,Cashion Plant,Superior Pipeline Company LLC,Superior Pipeline Company LLC,Cashion,OK,Logan,73016,2017,45,36.5,1300,0,700,-97.65489,35.74806,"EIA-757, Natural Gas Processing Plant Survey"
-106.23774,42.85663,71,Casper Plant,Tallgrass Energy Midstream LLC, ,Casper,WY,Natrona,82604,2017,65,45,1145,0,8970,-106.23774,42.85663,"EIA-757, Natural Gas Processing Plant Survey"
-86.88647,31.29632,72,Castleberry Plant,Gas Processors Inc,Gas Processors Inc,Castleberry,AL,Conecuh,36432,2017,9,9,1275,0,2857,-86.88647,31.29632,"EIA-757, Natural Gas Processing Plant Survey"
-108.36613,36.75905,73,CCI San Juan LLC,"Castleton Commodities International, LLC", ,Kirtland,NM,San Juan,87417,2017,30,23,1039,0,0,-108.36613,36.75905,"EIA-757, Natural Gas Processing Plant Survey"
-101.40068,33.16039,74,Cedar Hill Gas Plant,Davis Gas Processing Inc,Davis Gas Processing Inc,Post,TX,Garza,79356,2017,8,1,1265,0,750,-101.40068,33.16039,"EIA-757, Natural Gas Processing Plant Survey"
-104.15694,40.71389,75,Centennial Gas Plant,"Sterling Energy Investments, LLC","Sterling Energy Investments, LLC",Briggsdale,CO,Weld,80611,2017,20,11,1393,0,5714,-104.15694,40.71389,"EIA-757, Natural Gas Processing Plant Survey"
-102.5625,31.32501,76,CGU Cordona Lake Plant,"XTO Energy, Inc.","XTO Energy, Inc.",Crane,TX,Crane,79731,2017,10,4.57,610,0,443,-102.5625,31.32501,"EIA-757, Natural Gas Processing Plant Survey"
-108.12104,36.48328,77,Chaco Gas Plant,Enterprise Field Services LLC,Enterprise Products Operating LLC,Bloomfield,NM,San Juan,87413,2017,600,338,1185,0,12113,-108.12104,36.48328,"EIA-757, Natural Gas Processing Plant Survey"
-98.2442,36.4329,78,Chaney Dell Plant,"TPL Mid-Continent Westok, LLC","Tpl Mid-Continent Westok, LLC",Ringwood,OK,Major,73768,2017,30,0,1120,0,0,-98.2442,36.4329,"EIA-757, Natural Gas Processing Plant Survey"
-95.10833,32.38444,79,Chapel Hill Gas Plant,American Midstream,American Midstream,Winona,TX,Smith,75792,2017,25,13,1067,0,4850,-95.10833,32.38444,"EIA-757, Natural Gas Processing Plant Survey"
-88.40107,31.46161,80,Chatom Plant, ,"American Midstream Chatom, LLC",Chatom,AL,Washington,36518,2017,12,7,1200,0,6190,-88.40107,31.46161,"EIA-757, Natural Gas Processing Plant Survey"
-97.86237,37.60305,81,Cheney Natural Gas Processing,ONEOK,ONEOK,Cheney,KS,Kingman,67025,2017,85,30,1045,0,0,-97.86237,37.60305,"EIA-757, Natural Gas Processing Plant Survey"
-98.98034,36.2461,82,Chester Plant,Targa,Targa,Chester,OK,Major,73838,2017,30,0,1102,0,0,-98.98034,36.2461,"EIA-757, Natural Gas Processing Plant Survey"
-97.87806,33.3125,83,Chico Plant,"Targa Midstream Services, LLC","Targa Midstream Services, LLC",Chico,TX,Wise,76431,2017,265,135,1214,0,17383,-97.87806,33.3125,"EIA-757, Natural Gas Processing Plant Survey"
-109.41961,40.03766,84,Chipeta Plant,"Western Gas Partners, LP","Western Gas Partners, LP",Vernal,UT,Uintah,84078,2017,750,415,1112,0,0,-109.41961,40.03766,"EIA-757, Natural Gas Processing Plant Survey"
-90.82202,30.97027,85,Chipola Field Gas Plant,"Bridwell Oil Management, LLC","Bridwell Oil Management, LLC", ,LA,Saint Helena, ,2017,1,1,1200,0,700,-90.82202,30.97027,"EIA-757, Natural Gas Processing Plant Survey"
-96.88692,30.00133,86,Chisholm Plant,ETC Texas Pipeline Ltd.,Energy Transfer Company,La Grange,TX,Fayette,78945,2017,120,70,1275,0,1000,-96.88692,30.00133,"EIA-757, Natural Gas Processing Plant Survey"
-97.74381,35.7737,87,Chisholm Plant,"EnLink Midstream Services, LLC","EnLink Midstream Services, LLC",Kingfisher,OK,Kingfisher,73750,2017,560,390,1250,0,14156,-97.74381,35.7737,"EIA-757, Natural Gas Processing Plant Survey"
-97.82725,34.85603,88,Chitwood Plant,"DCP Operating Company, LP","DCP Operating Company, LP",Ninnekah,OK,Grady,73067,2017,90,70,1250,0,4000,-97.82725,34.85603,"EIA-757, Natural Gas Processing Plant Survey"
-98.99444,36.18222,89,Cimarron Gas Plant,"DCP Operating Company, LP","DCP Operating Company, LP",Seiling,OK,Woodward,73663,2017,65,55,1100,0,2388,-98.99444,36.18222,"EIA-757, Natural Gas Processing Plant Survey"
-98.86306,35.49528,90,Clinton,Enable Products LLC,Enable Products LLC,Clinton,OK,Custer,73601,2017,120,117,1197,0,0,-98.86306,35.49528,"EIA-757, Natural Gas Processing Plant Survey"
-96.23225,34.60486,91,Coalgate Plant,Enable Midstream Partners,Enable Midstream Partners,Coalgate,OK,Coal,74538,2017,13,4,1106,0,714,-96.23225,34.60486,"EIA-757, Natural Gas Processing Plant Survey"
-96.28924,34.58668,92,Coalgate Stonewall Gas Plant,Targa Resources,Targa Resources,Coalgate,OK,Coal,74538,2017,280,258,1200,0,0,-96.28924,34.58668,"EIA-757, Natural Gas Processing Plant Survey"
-80.52342,38.98233,93,Copley Extraction Plant,"Dominion Gathering and Processing, Inc.","Dominion Energy Transmission, Inc.",Weston,WV,Lewis,26452,2017,35,0,0,0,2514,-80.52342,38.98233,"EIA-757, Natural Gas Processing Plant Survey"
-102.87212,32.99888,94,Cornell Mahoney Gas Plant,"XTO Energy, INC", ,Denver City,TX,Yoakum,79323,2017,50,40,380,0,2000,-102.87212,32.99888,"EIA-757, Natural Gas Processing Plant Survey"
-93.37389,32.78472,95,Cotton Valley Gas Plant,"XTO Energy, Inc.","XTO Energy, Inc.",Cotton Valley,LA,Webster,71018,2017,90,35,0,0,18000,-93.37389,32.78472,"EIA-757, Natural Gas Processing Plant Survey"
-102.89911,48.48844,96,County Line Plant,"Liberty Midstream Solutions, LLC","Liberty Midstream Solutions, LLC",Tioga,ND,Williams,58852,2017,25,11,1475,0,6500,-102.89911,48.48844,"EIA-757, Natural Gas Processing Plant Survey"
-97.68107,32.33488,97,Cowtown/Corvette Plant,Cowtown Gas Processing Partners LP,Cowtown Gas Processing Partners LP,Cleburne,TX,Hood,76033,2017,300,125,1190,0,7857,-97.68107,32.33488,"EIA-757, Natural Gas Processing Plant Survey"
-97.80083,34.79639,98,Cox City,Enable Products LLC,Enable Products LLC,Rush Springs,OK,Grady,73082,2017,180,127,1172,0,3333,-97.80083,34.79639,"EIA-757, Natural Gas Processing Plant Survey"
-102.98944,31.19083,99,Coyanosa,ETC Field Services LLC,ETC Field Services LLC,Coyanosa,TX,Pecos,79730,2017,125,100,1175,0,97000,-102.98944,31.19083,"EIA-757, Natural Gas Processing Plant Survey"
-102.16505,31.41767,100,Crane Gas Plant,"Navitas Midstream Midland Basin, LLC", ,Crane,TX,Upton,79731,2017,30,25,1355,0,0,-102.16505,31.41767,"EIA-757, Natural Gas Processing Plant Survey"
-97.61754,35.90199,101,Crescent Plant,ETC Field Services LLC,ETC Field Services LLC,Crescent,OK,Logan,73028,2017,40,36,1200,0,1800,-97.61754,35.90199,"EIA-757, Natural Gas Processing Plant Survey"
-119.31194,35.28056,102,Crestwood,Crestwood Midstream Partners,Crestwood West Coast,Tupman,CA,Kern,93276,2017,24,1,1271,0,373,-119.31194,35.28056,"EIA-757, Natural Gas Processing Plant Survey"
-94.29724,32.43704,103,Crossroads,"DCP Operating Company, LP","DCP Operating Company, LP",Marshall,TX,Harrison,75672,2017,60,0,1025,0,0,-94.29724,32.43704,"EIA-757, Natural Gas Processing Plant Survey"
-99.02278,35.63778,104,Custer Natural Gas Processing,ONEOK,ONEOK,Custer City,OK,Custer,73639,2017,80,80,1120,0,715,-99.02278,35.63778,"EIA-757, Natural Gas Processing Plant Survey"
-112.24667,48.60306,105,Cut Bank NGL Plant,"Omimiex, LTD",Northwestern Energy,Cut Bank,MT,Glacier,59427,2017,20,4,1139,0,9000,-112.24667,48.60306,"EIA-757, Natural Gas Processing Plant Survey"
-108.91082,37.43702,106,Cutthroat B,QEP Energy Co,QEP Energy Co,Pleasant View,CO,Montezuma,81331,2017,0.84,0.07,1256,0,1429,-108.91082,37.43702,"EIA-757, Natural Gas Processing Plant Survey"
-104.44488,32.71398,107,Dagger Draw,Agave Energy Company,Agave Energy Company,Artesia,NM,Eddy,88210,2017,50,35,1150,0,0,-104.44488,32.71398,"EIA-757, Natural Gas Processing Plant Survey"
-101.48356,31.94763,108,Deadwood Plant, ,"Enlink Permian, LLC",Garden Cty,TX,Glasscock,79739,2017,58,29,1365,0,2330,-101.48356,31.94763,"EIA-757, Natural Gas Processing Plant Survey"
-103.10994,31.28416,109,Delaware Basin Gas Processing Plant,"Delaware Basin Gas Processing, LLC",Enterprise Products Operating LLC,Coyanosa,TX,Reeves,79730,2017,150,150,1239,0,0,-103.10994,31.28416,"EIA-757, Natural Gas Processing Plant Survey"
-98.48356,26.65669,110,Delmita Gas Plant,Enterprise Hydrocarbons Lp,Enterprise Products Operating LLC,Delmita,TX,Starr,78536,2017,40,23,1150,0,0,-98.48356,26.65669,"EIA-757, Natural Gas Processing Plant Survey"
-103.1705,33.04443,111,Denton Gas Plant,Davis Gas Processing Inc,Davis Gas Processing Inc,Lovington,NM,Lea,88260,2017,20,2,1427,0,750,-103.1705,33.04443,"EIA-757, Natural Gas Processing Plant Survey"
-102.81518,32.99825,112,Denver Unit CO2 Recovery Plant,Occidental Permian Ltd 04,OXY,Denver City,TX,Yoakum,79323,2017,290,279,229,0,850,-102.81518,32.99825,"EIA-757, Natural Gas Processing Plant Survey"
-94.01855,32.16002,113,Desoto Gas Plant, ,"Vernon E. Faulconer, Inc.", ,LA,Desoto, ,2017,1.007,0.775,1040,0,714,-94.01855,32.16002,"EIA-757, Natural Gas Processing Plant Survey"
-103.05667,32.14694,114,Dollarhide Gas Plant,Chevron Production Company,Chevron Production Company,Andrews County,TX,Andrews,79714,2017,56,56,0,0,7000,-103.05667,32.14694,"EIA-757, Natural Gas Processing Plant Survey"
-93.3318,33.19003,115,Dorcheat Gas Processing Plant,"Bonanza Creek Energy, Inc.","Bonanza Creek Energy, Inc.",Magnolia,AR,Columbia,71753,2017,12,11,1188,0,3857,-93.3318,33.19003,"EIA-757, Natural Gas Processing Plant Survey"
-105.35664,42.79074,116,Douglas Plant,Tallgrass Energy Midstream LLC,Tallgrass Energy Midstream LLC,Douglas,WY,Converse,82633,2017,130,63,1193,0,15650,-105.35664,42.79074,"EIA-757, Natural Gas Processing Plant Survey"
-97.9025,36.07194,117,Dover-Hennessey Gas Plant,Mustang Ventures Company,"Mustang Gas Products, LLC",Hennessey,OK,Kingfisher,73742,2017,80,42,1185,0,1150,-97.9025,36.07194,"EIA-757, Natural Gas Processing Plant Survey"
-108.80758,39.82875,118,Dragon Trail Gas Processing Facility,Utah Gas Op Ltd,Utah Gas Corp,Rangely,CO,Rio Blanco,81648,2017,60,55,0,0,6400,-108.80758,39.82875,"EIA-757, Natural Gas Processing Plant Survey"
-109.12667,45.25986,119,Dry Creek Plant,"Saga Petroleum, LLC","Saga Petroleum, LLC",Bridger,MT,Carbon,59014,2017,4,1,1190,0,1400,-109.12667,45.25986,"EIA-757, Natural Gas Processing Plant Survey"
-101.61673,36.9058,120,Dry Trail,Breitburn Operating LP,"Breitburn Operating, L.P.",Guymon,OK,Texas,73942,2017,100,93,1007,0,1710,-101.61673,36.9058,"EIA-757, Natural Gas Processing Plant Survey"
-92.66222,32.68944,121,Dubach Gas Plant,ETC Field Services LLC,ETC Field Services LLC,Dubach,LA,Lincoln,71235,2017,165,150,1133,0,3400,-92.66222,32.68944,"EIA-757, Natural Gas Processing Plant Survey"
-93.18586,32.50542,122,Dubberly Plant,ETC Field Services LLC,ETC Field Services LLC,Dubberly,LA,Webster,71024,2017,380,135,1120,0,4129,-93.18586,32.50542,"EIA-757, Natural Gas Processing Plant Survey"
-96.65097,29.13908,123,Eagle Plant,"DCP Operating Company, LP","DCP Operating Company, LP",Jackson,TX,Jackson,77957,2017,200,150,1275,0,1238,-96.65097,29.13908,"EIA-757, Natural Gas Processing Plant Survey"
-94.26188,32.18788,124,East Texas,"DCP Operating Company, LP","DCP Operating Company, LP",Carthage,TX,Panola,75631,2017,720,400,1175,0,185000,-94.26188,32.18788,"EIA-757, Natural Gas Processing Plant Survey"
-94.5887,32.86324,125,East Texas (Avinger),Enbridge G & P (East Texas) L.P.,Enbridge G & P (East Texas) L.P.,Avinger,TX,Marion,75630,2017,85,65,1080,0,4000,-94.5887,32.86324,"EIA-757, Natural Gas Processing Plant Survey"
-103.67417,31.36833,126,East Toyah Gas Plant,"EagleClaw Midstream Ventures, LLC","EagleClaw Midstream Ventures, LLC",Pecos,TX,Reeves,79772,2017,440,300,1250,0,4500,-103.67417,31.36833,"EIA-757, Natural Gas Processing Plant Survey"
-103.46041,32.79485,127,East Vacuum Liquid Recovery Plant,ConocoPhillips,ConocoPhillips,Lovington,NM,Lea,88260,2017,45,24,1027,0,1355,-103.46041,32.79485,"EIA-757, Natural Gas Processing Plant Survey"
-101.35176,32.49659,128,East Vealmoor Gas Plant,West Texas Gas Processing LP,West Texas Gas Processing LP,Coahoma,TX,Howard,79511,2017,45,22,1267,0,750,-101.35176,32.49659,"EIA-757, Natural Gas Processing Plant Survey"
-104.75717,40.53094,129,Eaton Plant,"DCP Operating Company, LP","DCP Operating Company, LP",Eaton,CO,Weld,80631,2017,11,10,1175,0,1140,-104.75717,40.53094,"EIA-757, Natural Gas Processing Plant Survey"
-107.82401,41.6467,130,Echo Springs Gas Plant,Williams,"Williams Midstream Services, LLC",Wamsutter,WY,Carbon,82336,2017,745,480,0,0,0,-107.82401,41.6467,"EIA-757, Natural Gas Processing Plant Survey"
-91.79556,30.75611,131,Elba Mini Plant,"JP Oil Company, LLC","JP Oil Company, LLC",Mellville,LA,St. Landry,71533,2017,3,2,0,0,952,-91.79556,30.75611,"EIA-757, Natural Gas Processing Plant Survey"
-98.96891,34.04329,132,Electra Plant,Layline North Texas LLC,Layline Energy I LLC,Electra,TX,Wilbarger,76360,2017,1,1,0,0,1429,-98.96891,34.04329,"EIA-757, Natural Gas Processing Plant Survey"
-108.84269,44.97966,133,Elk Basin Gasoline Plant,Encore Energy Partners Operating LLC,Encore Energy Partners Operating LLC,Powell,WY,Park,82435,2017,13,12,340,0,0,-108.84269,44.97966,"EIA-757, Natural Gas Processing Plant Survey"
-93.56444,32.36111,134,Elm Grove Plant,ETC Field Services LLC,ETC Field Services LLC,Haughton,LA,Bossier,71037,2017,200,155,1070,0,2700,-93.56444,32.36111,"EIA-757, Natural Gas Processing Plant Survey"
-97.43806,34.56306,135,Elmore City Gas Plant,Cimarex Energy Co., ,Elmore City,OK,Garvin,73433-9163,2017,26,11,1303,0,106,-97.43806,34.56306,"EIA-757, Natural Gas Processing Plant Survey"
-110.08967,41.39687,136,Emigrant Trail Gas Plant,"Green River Processing, LLC","Green River Processing, LLC",Lyman,WY,Uinta,82937,2017,55,32,1124,0,2800,-110.08967,41.39687,"EIA-757, Natural Gas Processing Plant Survey"
-97.6836,32.98473,137,Enbridge G&P (North Texas) Springtown Plant,Enbridge,Enbridge,Springtown,TX,Parker,76082,2017,0,0,0,0,0,-97.6836,32.98473,"EIA-757, Natural Gas Processing Plant Survey"
-97.87731,32.73387,138,Enbridge G&P (North Texas) Weatherford Plant,Enbridge,Enbridge,Weatherford,TX,Parker,76088,2017,70,65,1257,0,430,-97.87731,32.73387,"EIA-757, Natural Gas Processing Plant Survey"
-98.01186,28.75175,139,ETC Kenedy Plant,"ETC Texas Pipeline, Ltd.",Energy Transfer Company,Karnes City,TX,Karnes,78118,2017,410,370,1277,0,0,-98.01186,28.75175,"EIA-757, Natural Gas Processing Plant Survey"
-103.14833,32.42583,140,Eunice,"DCP Operating Company, LP","DCP Operating Company, LP", ,NM,Lea,88240,2017,105,95,1250,0,4000,-103.14833,32.42583,"EIA-757, Natural Gas Processing Plant Survey"
-92.53167,30.46056,141,Eunice Plant, ,"Enlink Processing, LLC",Eunice,LA,Acadia Parish,70535,2017,500,340,1036,0,66577,-92.53167,30.46056,"EIA-757, Natural Gas Processing Plant Survey"
-101.89556,35.53806,142,Fain Gas Plant, , ,Masterson,TX,Potter,79058,2017,50,35,1400,0,3048,-101.89556,35.53806,"EIA-757, Natural Gas Processing Plant Survey"
-94.83721,32.08185,143,Fairplay-Duncan Gas Processing Plant,Enterprise Gathering LLC,Enterprise Gathering LLC,Henderson,TX,Rusk,75652,2017,40,30,1097,0,714,-94.83721,32.08185,"EIA-757, Natural Gas Processing Plant Survey"
-95.5823,32.0859,144,Fairway Gas Plant,Exxon,"Vanguard Natural Resourses, Inc.",Poynor,TX,Henderson,75782,2017,88,40,1086,0,1083,-95.5823,32.0859,"EIA-757, Natural Gas Processing Plant Survey"
-80.59122,39.87752,145,Fort Beeler,Williams Partners LP,Williams Partners LP,Cameron,WV,Marshall,26033,2017,520,280,1212,0,19285,-80.59122,39.87752,"EIA-757, Natural Gas Processing Plant Survey"
-105.62047,42.78799,146,Fort Union Medicine Bow Treating Facility,Crestone Energy Ventures LLC,"Western Gas Partners, LP",Douglas,WY,Converse,82633,2017,340,111,953,0,0,-105.62047,42.78799,"EIA-757, Natural Gas Processing Plant Survey"
-97.51081,34.34867,147,Fox Plant,"DCP Operating Company, LP","DCP Operating Company, LP",Healdton,OK,Carter,73438,2017,24,18,1050,0,1450,-97.51081,34.34867,"EIA-757, Natural Gas Processing Plant Survey"
-84.01813,43.79656,148,Fraser 8,"Breitburn Operating, L.P.","Breitburn Operating, L.P.",Pinconning,MI,Bay,48650,2017,2,2,0,0,0,-84.01813,43.79656,"EIA-757, Natural Gas Processing Plant Survey"
-104.75101,40.1429,149,Ft. Lupton Plant,Kerr McGee Gathering LLC,Kerr McGee Gathering LLC,Ft. Lupton,CO,Weld,80621-9421,2017,160,148,1311,0,7850,-104.75101,40.1429,"EIA-757, Natural Gas Processing Plant Survey"
-103.17949,47.84953,150,Garden Creek Natural Gas Processing Plant,ONEOK,ONEOK,Watford City,ND,McKenzie,58854,2017,300,300,1450,0,28100,-103.17949,47.84953,"EIA-757, Natural Gas Processing Plant Survey"
-108.55414,44.79622,151,Garland Gas Plant,Merit Energy Company,Merit Energy Company,Byron,WY,Park,84212,2017,4,1,1090,0,572,-108.55414,44.79622,"EIA-757, Natural Gas Processing Plant Survey"
-90.96408,29.64288,152,Gibson Plant, ,"Enlink LIG Liquids, LLC",Gibson,LA,Terrabone Parish,70356,2017,110,84,1082,0,0,-90.96408,29.64288,"EIA-757, Natural Gas Processing Plant Survey"
-104.80208,40.27447,153,Gilcrest Plant,AKA Energy,AKA Eenergy Group,Platteville,CO,Weld,80651,2017,23,22,1257,0,1857,-104.80208,40.27447,"EIA-757, Natural Gas Processing Plant Survey"
-93.15694,30.27333,154,Gillis Gas Plant,Targa Field Services LLC,Targa Field Services LLC,Lake Charles,LA,Calcasieu,70615,2017,180,164,1113,0,11280,-93.15694,30.27333,"EIA-757, Natural Gas Processing Plant Survey"
-98.34559,26.42119,155,Gilmore Natural Gas Plant,Enterprise Hydrocarbons L.P.,Enterprise Hydrocarbons L.P.,Edinburg,TX,Hidalgo,78541,2017,265,225,1140,0,900,-98.34559,26.42119,"EIA-757, Natural Gas Processing Plant Survey"
-95.97475,35.96764,156,Glenpool (Creek) Plant,Kinder Morgan (Scissortail Energy LLC),Kinder Morgan (Scissortail Energy LLC),Tulsa,OK,Jenks,74033,2017,25,4,1146,0,1500,-95.97475,35.96764,"EIA-757, Natural Gas Processing Plant Survey"
-97.5536,32.49845,157,Godley gas Plant,Energy Transfer partners,Energy transfer partners,Godley,TX,Johnson,76044,2017,700,350,1280,0,10000,-97.5536,32.49845,"EIA-757, Natural Gas Processing Plant Survey"
-97.55716,32.59539,158,Goforth Plant, ,"Enlink Texas Processing, LP",Fort Worth,TX,Parker,76126,2017,30,20,1213,15,75,-97.55716,32.59539,"EIA-757, Natural Gas Processing Plant Survey"
-102.63451,31.98098,159,Goldsmith,"DCP Operating Company, LP","DCP Operating Company, LP",Goldsmith,TX,Ector,79741,2017,160,165,1325,0,9000,-102.63451,31.98098,"EIA-757, Natural Gas Processing Plant Survey"
-97.63975,28.61726,160,Goliad Gas Plant,"DCP Operating Company, LP","DCP Operating Company, LP",Berclair,TX,Goliad,78710,2017,230,177,1277,0,0,-97.63975,28.61726,"EIA-757, Natural Gas Processing Plant Survey"
-102.97861,30.98753,161,Gomez Plant,ETC Field Services LLC,ETC Field Services LLC,Fort Stockton,TX,Pecos,79735,2017,84,80,950,0,0,-102.97861,30.98753,"EIA-757, Natural Gas Processing Plant Survey"
-85.4091,44.1106,162,Goose Lake Gas Plant,Dart Oil & Gas Corporation,Dart Oil & Gas Corp,Leroy,MI,Osceola,49655,2017,2,0,1134,0,607,-85.4091,44.1106,"EIA-757, Natural Gas Processing Plant Survey"
-98.33814,32.5395,163,Gordon,Enbridge G&P North Texas L.P,"Enbridge G & P (North Texas), L.P.",Gordon,TX,Palo Pinto,76453,2017,40,35,1250,0,3600,-98.33814,32.5395,"EIA-757, Natural Gas Processing Plant Survey"
-92.96083,29.76444,164,Grand Cheniere,"Kinetica Partners, LLC","Kinetica Partners, LLC",Grand Chenier,LA,Cameron,70643,2017,130,26.082,1079,0,0,-92.96083,29.76444,"EIA-757, Natural Gas Processing Plant Survey"
-109.9556,41.5398,165,Granger Gas Plant,"Mountain Gas Resources, LLC",Anadarko Petroleum,Green River,WY,Sweetwater,82935,2017,500,296,1092,0,22300,-109.9556,41.5398,"EIA-757, Natural Gas Processing Plant Survey"
-103.99709,47.59125,166,Grasslands Natural Gas Processing Plant,ONEOK,ONEOK,Alexander,ND,McKenzie,58831,2017,85,68,1340,0,31738,-103.99709,47.59125,"EIA-757, Natural Gas Processing Plant Survey"
-93.63948,32.23687,167,Gravel Point,Aethon United Pipeline LP,Aethon Energy Operating LLC,Frierson,LA,DeSoto,71027,2017,0,0,0,0,0,-93.63948,32.23687,"EIA-757, Natural Gas Processing Plant Survey"
-101.03617,35.51075,168,Gray County Plant,ETC Field Services LLC,ETC Field Services LLC,Pampa,TX,Gray,79065,2017,20,15,1600,0,4300,-101.03617,35.51075,"EIA-757, Natural Gas Processing Plant Survey"
-119.14178,35.43065,169,Greeley Gas Plant,Crimson Resource Management Corp,Crimson Resource Management Corp,Bakersfield,CA,Kern,93309,2017,0.7,0.45,1200,0,238,-119.14178,35.43065,"EIA-757, Natural Gas Processing Plant Survey"
-104.72967,40.36428,170,Greeley Plant,"DCP Operating Company, LP","DCP Operating Company, LP",Evans,CO,Weld,80620,2017,27,25,1175,0,17150,-104.72967,40.36428,"EIA-757, Natural Gas Processing Plant Survey"
-101.40753,35.51399,171,Grey Badger,"Midstream Energy Services, LLC","Midstream Energy  Services, LLC",Panhandle,TX,Carson,79068,2017,25,8,1363,0,2800,-101.40753,35.51399,"EIA-757, Natural Gas Processing Plant Survey"
-79.10058,41.81505,172,Grunder Run Plant,"KCS Energy, Inc","KCS Energy, Inc.",Warren,PA,Warren,16365,2017,2,1,1360,0,1428,-79.10058,41.81505,"EIA-757, Natural Gas Processing Plant Survey"
-97.90256,27.68677,173,Gulf Plains Gas Plant,"DCP Operating Company, LP","DCP Operating Company, LP",Bishop,TX,Nueces,78343,2017,170,143,1200,0,3475,-97.90256,27.68677,"EIA-757, Natural Gas Processing Plant Survey"
-102.9929,31.7302,174,Halley,ETC Field Services LLC,Energy Transfer Company,Kermit,TX,Winkler,79745,2017,107,90,1129,0,169,-102.9929,31.7302,"EIA-757, Natural Gas Processing Plant Survey"
-100.26539,32.86721,175,Hamlin,ETC Field Services LLC,ETC Field Services LLC,Hamlin,TX,Fisher,79520,2017,6,5,1380,0,570,-100.26539,32.86721,"EIA-757, Natural Gas Processing Plant Survey"
-118.2987,33.80734,176,Harbor City, ,"Brea Canon Oil Co., Inc.",Harbor City,CA,Los Angeles,90710-1400,2017,0,0,0,0,0,-118.2987,33.80734,"EIA-757, Natural Gas Processing Plant Survey"
-109.11762,39.20148,177,Harley Dome Plant,"Red Rock Gathering Company, LLC","Red Rock Gathering Company, LLC.", ,UT,Grand County,81505,2017,30,14,1098,0,714,-109.11762,39.20148,"EIA-757, Natural Gas Processing Plant Survey"
-97.18644,35.51506,178,Harrah Plant,Kinder Morgan (Scissortail Energy LLC),Kinder Morgan (Scissortail Energy LLC),Harrah,OK,Lincoln,73045,2017,40,32,1250,0,29525,-97.18644,35.51506,"EIA-757, Natural Gas Processing Plant Survey"
-80.67772,39.55145,179,Hastings Extraction Plant,"Dominion Gathering and Processing, Inc.","Dominion Energy Transmission, Inc.",Pine Grove,WV,Wetzel,26419,2017,180,147,1231,0,37979,-80.67772,39.55145,"EIA-757, Natural Gas Processing Plant Survey"
-88.06681,30.89158,180,Hatter`s Pond, ,Hilcorp Energy Co.,Creola,AL,Mobile,36525,2017,70,8,1295,0,15000,-88.06681,30.89158,"EIA-757, Natural Gas Processing Plant Survey"
-95.19667,32.61167,181,Hawkins Gas Plant,"XTO Energy, Inc.","XTO Energy, Inc.",Hawkins,TX,Wood,75765,2017,180,159,351,0,900,-95.19667,32.61167,"EIA-757, Natural Gas Processing Plant Survey"
-103.5488,47.76333,182,Hay Butte,Caliber North Dakota LLC,Caliber North Dakota LLC,Alexander,ND,McKenzie,58831,2017,10,4.969,1170,0,5000,-103.5488,47.76333,"EIA-757, Natural Gas Processing Plant Survey"
-108.74573,39.49955,183,Hay Canyon Treatment Facility,Caerus Piceance LLC, ,Loma,CO,Garfield,81524,2017,20,3,1070,0,1428,-108.74573,39.49955,"EIA-757, Natural Gas Processing Plant Survey"
-100.38863,35.76874,184,"Hemphill (C, D & E)",Superior Pipeline Corporation,Superior Pipeline Corporation,Canadian,TX,Hemphill,79014,2017,275,195,0,0,800,-100.38863,35.76874,"EIA-757, Natural Gas Processing Plant Survey"
-100.35435,35.83981,185,Hemphill Plant,ETC Field Services LLC,ETC Field Services LLC,Canadian,TX,Hemphill,79014,2017,50,48,1254,0,2143,-100.35435,35.83981,"EIA-757, Natural Gas Processing Plant Survey"
-94.87806,32.15889,186,Henderson,Enbridge G & P (East Texas) L.P.,Enbridge G & P (East Texas) L.P.,Henderson,TX,Rusk,75654,2017,280,115,1090,0,600,-94.87806,32.15889,"EIA-757, Natural Gas Processing Plant Survey"
-104.39271,40.98127,187,Hereford Ranch Plant,"Summit Midstream Partners, LLC","Meadowlark Midstream Company, LLC",Hereford,CO,Weld,80729,2017,20,13,1250,0,329,-104.39271,40.98127,"EIA-757, Natural Gas Processing Plant Survey"
-80.52151,40.9645,188,Hickory Bend,"Columbia Pennant, LLC",TransCanada/Columbia Midstream,New Middletown,OH,Mahoning,44442,2017,200,95,1242,1,4500,-80.52151,40.9645,"EIA-757, Natural Gas Processing Plant Survey"
-100.39561,35.46413,189,Hidetown Plant,Enbridge Pipelines (Texas Gathering) L.P.,Enbridge Pipelines (Texas Gathering) L.P.,Wheeler,TX,Wheeler,79096,2017,132,3,1121,0,833,-100.39561,35.46413,"EIA-757, Natural Gas Processing Plant Survey"
-101.78981,31.85336,190,High Plains Plant,Targa Resources, ,Midland,TX,Midland,79706,2017,200,171,1260,0,837,-101.78981,31.85336,"EIA-757, Natural Gas Processing Plant Survey"
-105.36245,43.84205,191,Hilight Complex,"Western Gas Partners, LP","Western Gas Partners, LP",Gillette,WY,Campbell,82718,2017,60,52,1385,0,13725,-105.36245,43.84205,"EIA-757, Natural Gas Processing Plant Survey"
-100.33968,35.69287,192,Hobart Cryo Plant,Enbridge Pipelines (Texas Gathering) L.P.,Enbridge Pipelines (Texas Gathering) L.P.,Canadian,TX,Hemphill,79014,2017,35,0,0,0,1000,-100.33968,35.69287,"EIA-757, Natural Gas Processing Plant Survey"
-100.39603,35.74717,193,Hobart Ranch Gas Plant,Enbridge Pipelines (Texas Gathering) L.P.,Enbridge Pipelines (Texas Gathering) L.P.,Canadian,TX,Hemphill,79014,2017,125,0,0,0,0,-100.39603,35.74717,"EIA-757, Natural Gas Processing Plant Survey"
-103.30722,32.70556,194,Hobbs Cryogenics Plant,"DCP Operating Company, LP","DCP Operating Company, LP",Hobbs,NM,Lea,88240,2017,42,20,1125,0,80,-103.30722,32.70556,"EIA-757, Natural Gas Processing Plant Survey"
-98.6383,36.6823,195,Hopeton,"SenGas, LP","SemGas, LP",Dacoma,OK,Woods,73731,2017,140,80,1158,0,0,-98.6383,36.6823,"EIA-757, Natural Gas Processing Plant Survey"
-96.62299,29.46976,196,Houston Central Plant,Copano Processing LLC,Copano Processing LLC,Sheridan,TX,Colorado,77475,2017,1000,707,0,0,24608,-96.62299,29.46976,"EIA-757, Natural Gas Processing Plant Survey"
-80.2571,40.26311,197,Houston Plant,MarkWest Liberty Midstream & Resources,MarkWest Liberty Midstream & Resources,Washington,PA,Washington,15301,2017,520,495,1269,0,0,-80.2571,40.26311,"EIA-757, Natural Gas Processing Plant Survey"
-98.38422,32.31411,198,Huckabay,Enbridge G&P North Texas L.P,"Enbridge G & P (North Texas), L.P.",Stephenville,TX,Erath,76401,2017,20,19,1220,0,1833,-98.38422,32.31411,"EIA-757, Natural Gas Processing Plant Survey"
-95.59302,30.81986,199,Huntsville Gas Plant,Copano Processing LLC,Copano Processing LLC,Huntsville,TX,Walker,77320,2017,15,5,1170,0,4285,-95.59302,30.81986,"EIA-757, Natural Gas Processing Plant Survey"
-82.00417,38.40001,200,Hurricane Gas Processing Plant,"Tulsa Hurricane, LLC",Elkhorn Gas Processing,Hurricane,WV,Putnam,25526,2017,10,4,1250,0,2429,-82.00417,38.40001,"EIA-757, Natural Gas Processing Plant Survey"
-107.78501,37.14306,201,Ignacio Gas Plant,Williams,"Williams Midstream Services, LLC",Durango,CO,LaPlata,81303,2017,595,407,1099,0,38850,-107.78501,37.14306,"EIA-757, Natural Gas Processing Plant Survey"
-104.57056,32.46667,202,Indian Basin Gas Plant,Oxy Usa Wtp LP,Oxy Permian Resources - Delaware Basin,Lakewood,NM,Eddy,88254,2017,300,64,1260,0,5000,-104.57056,32.46667,"EIA-757, Natural Gas Processing Plant Survey"
-100.82746,35.89962,203,Indian Creek Gas Plant,Crestwood Panhandle Pipeline LLC,Crestwood Panhandle Pipeline LLC,Pampa,TX,Roberts,79065,2017,36,23,1260,0,1109,-100.82746,35.89962,"EIA-757, Natural Gas Processing Plant Survey"
-98.64313,33.05416,204,Indian Mound,"Advance NGL, Inc.","Advance NGL, Inc.",Graham,TX,Young,76450,2017,1,1,0,0,1429,-98.64313,33.05416,"EIA-757, Natural Gas Processing Plant Survey"
-94.70286,30.75692,205,Indian Springs Gas Plant,"TECO Gas Processing, LLC",Enterprise Products Operating LLC,Livingston,TX,Polk,77351,2017,146,125,1160,0,1068,-94.70286,30.75692,"EIA-757, Natural Gas Processing Plant Survey"
-93.00222,30.48139,206,Indian Village Plant,"JP Oil Company, LLC","JP Oil Company, LLC",Reaves,LA,Allen,70658,2017,3,2,0,0,714,-93.00222,30.48139,"EIA-757, Natural Gas Processing Plant Survey"
-96.53764,29.10957,207,Jackson Plant,"ETC Texas Pipeline, Ltd.",Energy Transfer Company,Ganado,TX,Jackson,77962,2017,800,690,1267,0,10714,-96.53764,29.10957,"EIA-757, Natural Gas Processing Plant Survey"
-103.17361,32.17417,208,Jal #3 Plant,ETC Field Services LLC,ETC Field Services LLC,Jal,NM,Lea,88252,2017,110,95,0,0,6680,-103.17361,32.17417,"EIA-757, Natural Gas Processing Plant Survey"
-100.68229,32.0491,209,Jameson Plant,WTG Jameson LP,West Texas Gas Processing LP,Silver,TX,Coke,76949,2017,60,58,1349,0,750,-100.68229,32.0491,"EIA-757, Natural Gas Processing Plant Survey"
-101.12244,37.55921,210,Jayhawk Gas Plant,Linn Energy,Linn Energy,Ulysses,KS,Grant,67880,2017,450,250,1000,0,0,-101.12244,37.55921,"EIA-757, Natural Gas Processing Plant Survey"
-94.05894,31.91107,211,Joaquin Plant,Enable Midstream Partners,Enable Midstream Partners,Joaquin,TX,Shelby,75954,2017,40,5,1070,0,1191,-94.05894,31.91107,"EIA-757, Natural Gas Processing Plant Survey"
-85.19667,44.69001,212,Kalkaska Gas Processing,Merit Energy Company, ,Kalkaska,MI,Kalkaska,49680,2017,75,32,1099,0,42000,-85.19667,44.69001,"EIA-757, Natural Gas Processing Plant Survey"
-78.76281,41.67731,213,Kane Gas Plant,Kane GPP LP,Elkhorn Gas Processing,Kane,PA,McKean,16735,2017,12,5,1293,0,3035,-78.76281,41.67731,"EIA-757, Natural Gas Processing Plant Survey"
-92.28193,29.88113,214,Kaplan Plant,"PSI Midstream Partners, LP","PSI Midstream Partners, LP",Abbeville,LA,Vermilion,70510,2017,200,120,1100,0,1000,-92.28193,29.88113,"EIA-757, Natural Gas Processing Plant Survey"
-109.39095,40.92909,215,Kastler Dew Point Plant,Dominion Energy Questar Pipeline,Dominion Energy Questar Pipeline,Dutch John,UT,Daggett,84023,2017,300,9,1046,0,2143,-109.39095,40.92909,"EIA-757, Natural Gas Processing Plant Survey"
-100.11389,35.43778,216,Kelton Gas Plant,Kelton Gas Services LLC,Durango Midstream,Wheeler,TX,Wheeler,79096,2017,90,32,1200,0,1200,-100.11389,35.43778,"EIA-757, Natural Gas Processing Plant Survey"
-82.59139,38.37278,217,Kenova,"Markwest Energy Partners, L.P.","Markwest Energy Partners, L.P.",Kenova,WV,Kanawha,25045-0932,2017,160,108,1220,0,13600,-82.59139,38.37278,"EIA-757, Natural Gas Processing Plant Survey"
-80.92372,40.73696,218,Kensington,Utica East Ohio Midstream LLC,Utica East Ohio Midstream LLC,Kensington,OH,Columbiana,77002,2017,750,501,1240,0,9200,-80.92372,40.73696,"EIA-757, Natural Gas Processing Plant Survey"
-104.22037,40.74044,219,Keota Gas Plant,Noble Energy,Noble Midstream Services,Briggsdale,CO,Weld,80611,2017,30,30,1450,0,2857,-104.22037,40.74044,"EIA-757, Natural Gas Processing Plant Survey"
-82.40882,37.83857,220,Kermit,"Core Appalachia Operating, LLC","Core Appalachia Operating, LLC",Kermit,WV,Mingo,25674,2017,32,18,1268,0,714,-82.40882,37.83857,"EIA-757, Natural Gas Processing Plant Survey"
-103.04417,31.94556,221,Keystone,ETC Field Services LLC,ETC Field Services LLC,Kermit,TX,Winkler,79745,2017,100,100,1200,0,500,-103.04417,31.94556,"EIA-757, Natural Gas Processing Plant Survey"
-79.12536,41.81944,222,Keystone Gas Plant,Elkhorn Holdings,Elkhorn Gas Processing,Clarendon,PA,Warren,16735,2017,10,3,1293,0,2064,-79.12536,41.81944,"EIA-757, Natural Gas Processing Plant Survey"
-80.0799464,40.8052444,223,Keystone Plant,MarkWest Liberty Midstream & Resource,MarkWest Liberty Midstream & Resources,Evans City,PA,Butler,16033,2017,410,117,1219,0,55571,-80.0799464,40.8052444,"EIA-757, Natural Gas Processing Plant Survey"
-98.05583,27.46806,224,King Ranch Gas Plant,"ETC Texas Pipeline, Ltd.","ETC Texas Pipeline, Ltd.",Kingsville,TX,Kleberg,78363,2017,650,375,1170,0,140000,-98.05583,27.46806,"EIA-757, Natural Gas Processing Plant Survey"
-97.74498,35.78951,225,Kingfisher,"DCP Operating Company, LP","DCP Operating Company, LP",Cashion,OK,Kingfisher,73016,2017,170,115,1200,0,3600,-97.74498,35.78951,"EIA-757, Natural Gas Processing Plant Survey"
-97.74498,35.78951,226,"Kingfisher Midstream, LLC","Alta Mesa Holdings, LP","Kingfisher Midstream, LLC",Dover,OK,Kingfisher,73734-3513,2017,60,54,1244,0,0,-97.74498,35.78951,"EIA-757, Natural Gas Processing Plant Survey"
-97.87253,37.66021,227,Kingman Gas Plant,Durango Midstream, ,Cheney,KS,Kingman,67025,2017,26,21,0,0,380,-97.87253,37.66021,"EIA-757, Natural Gas Processing Plant Survey"
-97.88261,33.52713,228,Kripple Kreek Gas Plant,Pecan Pipeline Company,Pecan Pipeline Company,Bowie,TX,Montague,76230,2017,160,75,1200,0,7300,-97.88261,33.52713,"EIA-757, Natural Gas Processing Plant Survey"
-91.78967,30.49581,229,Krotz Springs Gas Plant,"JP Oil Company, LLC","JP Oil Company, LLC",Krotz Springs,LA,St. Landry,70750,2017,5,1,0,0,1143,-91.78967,30.49581,"EIA-757, Natural Gas Processing Plant Survey"
-107.96175,36.66727,230,Kutz Gas Plant,Williams,"Williams Midstream Services, LLC",Bloomfield,NM,San Juan,87413,2017,230,114,1152,0,4285,-107.96175,36.66727,"EIA-757, Natural Gas Processing Plant Survey"
-98.15447,27.27639,231,La Gloria,"DCP Operating Company, LP","DCP Operating Company, LP",Falfurrias,TX,Jim Wells,78355,2017,265,40,1130,0,34120,-98.15447,27.27639,"EIA-757, Natural Gas Processing Plant Survey"
-96.88861,30.00583,232,La Grange Plant,ETC Texas Pipeline Ltd,Energy Transfer Company,La Grange,TX,Fayette,78945,2017,200,110,1275,0,1700,-96.88861,30.00583,"EIA-757, Natural Gas Processing Plant Survey"
-105.10533,37.53994,233,La Veta Gas Plant,Tabula Rasa Energy LLC,Tabula Rasa Energy LLC,La Veta,CO,Huerfano,81055,2017,20,4,285,0,2142,-105.10533,37.53994,"EIA-757, Natural Gas Processing Plant Survey"
-102.39433,38.79957,234,Ladder Creek,"DCP Operating Company, LP","DCP Operating Company, LP",Cheyenne Wells,CO,Cheyenne,80810,2017,55,15,750,0,600,-102.39433,38.79957,"EIA-757, Natural Gas Processing Plant Survey"
-78.69785,41.80282,235,Lafayette,MSL Oil & Gas Corp., ,Lewis Run,PA,Mckean,16738,2017,2,2,1360,0,700,-78.69785,41.80282,"EIA-757, Natural Gas Processing Plant Survey"
-91.68271,30.23908,236,Lake LaRose Gas Plant,Whiskey Bay Gathering Company,Whiskey Bay Gathering Company,Breaux Bridge,LA,St. Martin,70517,2017,5,1,1118,0,150,-91.68271,30.23908,"EIA-757, Natural Gas Processing Plant Survey"
-104.74839,40.14548,237,Lancaster Plant,Western Gas Partners LLC,Anadarko Petroleum,Ft. Lupton,CO,Weld,80621-9421,2017,660,653,1311,0,5700,-104.74839,40.14548,"EIA-757, Natural Gas Processing Plant Survey"
-82.80028,37.52632,238,Langley Processing Plant,"Markwest Energy Partners, L.P.","Markwest Energy Partners, L.P.",Langley,KY,Floyd,41645,2017,295,118,1290,0,4897,-82.80028,37.52632,"EIA-757, Natural Gas Processing Plant Survey"
-90.39677,29.54171,239,Larose Processing Plant,Discovery Producer Services,Williams Energy LLC,Larose,LA,Lafourche,70373,2017,600,280,1175,0,100,-90.39677,29.54171,"EIA-757, Natural Gas Processing Plant Survey"
-99.4639,35.81381,240,Leedey Natural Gas Processing,ONEOK,ONEOK,Leedey,OK,Roger Mills,73654-9311,2017,50,20,1180,0,2857,-99.4639,35.81381,"EIA-757, Natural Gas Processing Plant Survey"
-81.22758,40.45066,241,Leesville,Utica East Ohio Midstream LLC,Utica East Ohio Midstream LLC,Dennison,OH,Carroll,44621,2017,250,6,1268,0,3500,-81.22758,40.45066,"EIA-757, Natural Gas Processing Plant Survey"
-78.6591,41.88182,242,Lewis Run Gas Plant,Elkhorn Investments LLC,Elkhorn Gas Processing,Bradford,PA,McKean,16701,2017,5,0,0,0,1821,-78.6591,41.88182,"EIA-757, Natural Gas Processing Plant Survey"
-80.44848,39.13194,243,Lightburn Extraction Plant,"Dominion Gathering and Processing, Inc.","Dominion Energy Transmission, Inc.",Jane Lew,WV,Lewis,26378,2017,44,9,1166,0,5028,-80.44848,39.13194,"EIA-757, Natural Gas Processing Plant Survey"
-102.54368,48.87366,244,Lignite Natural Gas Processing Plant,ONEOK,ONEOK,Lignite,ND,Burke,58752,2017,10,7,1293,0,8571,-102.54368,48.87366,"EIA-757, Natural Gas Processing Plant Survey"
-103.87405,40.68488,245,Lilli Gas Processing Facility,Noble Energy,Noble Midstream Services,New Raymer,CO,Weld,80742,2017,18,18,1400,0,2572,-103.87405,40.68488,"EIA-757, Natural Gas Processing Plant Survey"
-103.28623,32.69393,246,Linam Ranch,"DCP Operating Company, LP","DCP Operating Company, LP",Hobbs,NM,Lea,88240,2017,225,164,1241,0,1400,-103.28623,32.69393,"EIA-757, Natural Gas Processing Plant Survey"
-92.85614,32.57471,247,Lincoln Parish Plant,ETC PennTex LLC, ,Arcadia,LA,Lincoln,71001,2017,200,150,1082,0,8500,-92.85614,32.57471,"EIA-757, Natural Gas Processing Plant Survey"
-103.09801,47.29694,248,Little Knife Gas Plant,Petro Hunt LLC,Petro Hunt LLC,Killdeer,ND,Billings,58640,2017,25,17,1400,0,12530,-103.09801,47.29694,"EIA-757, Natural Gas Processing Plant Survey"
-103.50696,31.75106,249,Lobo I Plant, ,Delaware G&P LLC, ,TX,Loving, ,2017,35,22,1220,0,0,-103.50696,31.75106,"EIA-757, Natural Gas Processing Plant Survey"
-103.50696,31.75106,250,Lobo II Plant,Delaware Processing LLC,Delaware Processing LLC,Mentone,TX,Loving,79754,2017,135,110,1300,0,700,-103.50696,31.75106,"EIA-757, Natural Gas Processing Plant Survey"
-120.43286,34.72234,251,Lompoc Oil & Gas Plant,Freeport-McMoRan Oil & Gas - 100%,Freeport-McMoRan Oil & Gas,Lompoc,CA,Santa Barbara,93436,2017,15,3,1176,0,2140,-120.43286,34.72234,"EIA-757, Natural Gas Processing Plant Survey"
-98.31222,32.66139,252,Lone Camp,Enbridge G&P North Texas L.P,"Enbridge G & P (North Texas), L.P.",Gordon,TX,Palo Pinto,76453,2017,40,30,1250,0,714,-98.31222,32.66139,"EIA-757, Natural Gas Processing Plant Survey"
-97.84995,28.56216,253,Lone Star Plant,Southcross Energy GP LLC,"FL Rich Gas Services, LP",Tuleta,TX,Bee,78162,2017,300,130,1278,0,760,-97.84995,28.56216,"EIA-757, Natural Gas Processing Plant Survey"
-103.26307,47.69341,254,Lonesome Creek Natural Gas Processing Plant,ONEOK,ONEOK,Alexander,ND,McKenzie,58831,2017,200,173,1405,0,8571,-103.26307,47.69341,"EIA-757, Natural Gas Processing Plant Survey"
-98.49361,33.80583,255,Longhorn Gas Plant,Enerfin Resources Company,Enerfin Resources II-92 LP,Wichita Falls,TX,Archer,76310,2017,2,1,1333,0,950,-98.49361,33.80583,"EIA-757, Natural Gas Processing Plant Survey"
-97.52678,33.31093,256,Longhorn Gas Plant,Targa Gas Processing LLC,Targa Gas Processing LLC,Decatur,TX,Wise,76234,2017,200,127,1157,0,0,-97.52678,33.31093,"EIA-757, Natural Gas Processing Plant Survey"
-94.86806,32.50361,257,Longview,Enbridge G & P (East Texas) L.P.,Enbridge G & P (East Texas) L.P.,Longview,TX,Gregg,75603,2017,125,110,1080,0,1000,-94.86806,32.50361,"EIA-757, Natural Gas Processing Plant Survey"
-94.86806,32.50361,258,Longview Gas Plant,American Midstream, ,Longview,TX,Gregg,75604,2017,50,16,1270,0,7850,-94.86806,32.50361,"EIA-757, Natural Gas Processing Plant Survey"
-107.60222,43.27993,259,Lost Cabin Gas Plant,ConocoPhillips Company (Burlington Resources),ConocoPhillips,Lysite,WY,Fremont,82642,2017,265,211,984,0,0,-107.60222,43.27993,"EIA-757, Natural Gas Processing Plant Survey"
-103.35693,31.90058,260,Loving Plant,Targa Delaware LLC,Targa Delaware LLC,Loving,TX,Loving,79745,2017,70,40,1210,0,1400,-103.35693,31.90058,"EIA-757, Natural Gas Processing Plant Survey"
-92.77568,30.00797,261,Lowry Gas Plant,Targa Resources,Targa Resources,Lake Arthur,LA,Cameron,70549,2017,220,1,1065,0,0,-92.77568,30.00797,"EIA-757, Natural Gas Processing Plant Survey"
-104.66417,40.45722,262,Lucerne,"DCP Operating Company, LP","DCP Operating Company, LP",Greeley,CO,Weld,80631,2017,36,36,1175,0,3272,-104.66417,40.45722,"EIA-757, Natural Gas Processing Plant Survey"
-104.66417,40.45722,263,Lucerne II,"DCP Operating Company, LP","DCP Operating Company, LP",Greeley,CO,Weld,80631,2017,225,225,1175,0,0,-104.66417,40.45722,"EIA-757, Natural Gas Processing Plant Survey"
-87.42206,31.45901,264,Lufkin Plant, ,Hilcorp Energy Co.,Frisco City,AL,Monroe,36445,2017,3,1,1100,0,952,-87.42206,31.45901,"EIA-757, Natural Gas Processing Plant Survey"
-96.5889,34.0845,265,Madill Gas Plant,"Madill Gas Processing Company, Llc",Carrera Operating Company,Madill,OK,Marshall,73446,2017,50,40,1200,0,3800,-96.5889,34.0845,"EIA-757, Natural Gas Processing Plant Survey"
-80.52056,39.96361,266,Majorsville Plant,MarkWest Liberty Midstream & Resource,MarkWest Liberty Midstream & Resources,Dallas,WV,Marshall,26036,2017,1070,902,1241,0,0,-80.52056,39.96361,"EIA-757, Natural Gas Processing Plant Survey"
-103.77194,32.81389,267,Maljamar Gas Plant,AKA - Frontier Field Services,Frontier Field Services,Maljamar,NM,Lea,88264,2017,150,85,1200,0,1143,-103.77194,32.81389,"EIA-757, Natural Gas Processing Plant Survey"
-85.09891,44.08532,268,Marion Gas Plant,Dart Oil & Gas Corporation,Dart Oil & Gas Corp,Marion,MI,Osceola,49665,2017,3,1,1194,0,607,-85.09891,44.08532,"EIA-757, Natural Gas Processing Plant Survey"
-96.06029,29.01754,269,Markham Gas Processing Plant,Williams Field Services-Gulf Coast Company LP,Williams Field Services-Gulf Coast Company LP,Markham,TX,Matagorda,77456,2017,550,225,1139,0,0,-96.06029,29.01754,"EIA-757, Natural Gas Processing Plant Survey"
-98.37376,33.32721,270,Markley Plant, ,"W. W. Sub, Inc.",Jermyn,TX,Jack & Young,76459,2017,1,1,0,0,500,-98.37376,33.32721,"EIA-757, Natural Gas Processing Plant Survey"
-81.32263,38.4875,271,Markwest Cobb Extraction,"Markwest Energy Partners, L.P.","Markwest Energy Partners, L.P.",Clendenin,WV,Kanawha,25045-0932,2017,35,24,1240,0,2950,-81.32263,38.4875,"EIA-757, Natural Gas Processing Plant Survey"
-98.3875,35.88897,272,Matli Plant,Kinder Morgan,Kinder Morgan,Watonga,OK,Blaine,73772,2017,25,5,1140,0,914,-98.3875,35.88897,"EIA-757, Natural Gas Processing Plant Survey"
-97.4416,34.81334,273,Maysville Natural Gas Processing,ONEOK,ONEOK,Maysville,OK,Garvin,73057-0846,2017,140,138,1313,0,8600,-97.4416,34.81334,"EIA-757, Natural Gas Processing Plant Survey"
-99.28509,35.68025,274,McClure,Enable Products LLC,Enable Products LLC,Butler,OK,Custer,73625,2017,215,200,1111,0,2620,-99.28509,35.68025,"EIA-757, Natural Gas Processing Plant Survey"
-119.63029,35.32284,275,McKittrick 17Z Plant,Chevron,Chevron,McKittrick,CA,Kern,93251,2017,80,24,1140,0,5714,-119.63029,35.32284,"EIA-757, Natural Gas Processing Plant Survey"
-100.54206,35.24047,276,McLean Plant,"Mclean Gas Processing Company, Lly",Carrera Operating Company,Mclean,TX,Gray,79057,2017,25,9,1200,0,300,-100.54206,35.24047,"EIA-757, Natural Gas Processing Plant Survey"
-98.4833,28.4458,277,McMullen, ,Houston Pipeline Co.,Tilden,TX,McMullen,78072,2017,5,4,1260,0,760,-98.4833,28.4458,"EIA-757, Natural Gas Processing Plant Survey"
-108.19309,40.10497,278,Meeker Gas Plant,"Enterprise Gas Processing, LLC","Enterprise Gas Processing, LLC",Rifle,CO,Rio Blanco,81650,2017,1800,955,1080,0,0,-108.19309,40.10497,"EIA-757, Natural Gas Processing Plant Survey"
-96.99814,36.04084,279,Mehan Gas Plant,Tag Petroleum Inc,Tag Petroleum Inc,Stillwater,OK,Payne,74076-1389,2017,1.5,0.65,1250,0,714,-96.99814,36.04084,"EIA-757, Natural Gas Processing Plant Survey"
-84.1854,44.52155,280,Mentor NGL plant,Merit Energy Company (100%),Merit Energy Company,Rose City,MI,Oscoda,48654-xxxx,2017,10,1,1130,0,715,-84.1854,44.52155,"EIA-757, Natural Gas Processing Plant Survey"
-95.18602,30.56603,281,Mercy Gas Plant,Forest Oil Corporation 100%,Forest Oil Corporation,Near Cleveland,TX,San Jacinto, ,2017,4,2,0,0,1000,-95.18602,30.56603,"EIA-757, Natural Gas Processing Plant Survey"
-100.90693,31.18414,282,Mertzon Plant,Targa Resources, ,Mertzon,TX,Irion,76941,2017,52,49,1239,0,7658,-100.90693,31.18414,"EIA-757, Natural Gas Processing Plant Survey"
-104.73603,40.26514,283,Mewbourne,"DCP Operating Company, LP","DCP Operating Company, LP",Platteville,CO,Weld,80651,2017,143,143,1175,0,120000,-104.73603,40.26514,"EIA-757, Natural Gas Processing Plant Survey"
-101.76751,31.64655,284,Midkiff Plant,Targa Resources,Targa Pipeline MC WestTex LLC,Midkiff,TX,Reagan,79755,2017,230,220,1290,0,833,-101.76751,31.64655,"EIA-757, Natural Gas Processing Plant Survey"
-102.19403,32.17797,285,Midmar East, ,Coronado Midstream LLC,Tarzan,TX,Martin,79783,2017,100,65,1300,0,2500,-102.19403,32.17797,"EIA-757, Natural Gas Processing Plant Survey"
-102.35568,32.16281,286,Midmar West, ,Coronado Midstream LLC,Andrews,TX,Andrews,79714,2017,65,41,1300,0,640,-102.35568,32.16281,"EIA-757, Natural Gas Processing Plant Survey"
-96.56744,35.76878,287,Milfay Plant,Kinder Morgan (Scissortail Energy LLC),Kinder Morgan (Scissortail Energy LLC),Stroud,OK,Creek,74079,2017,15,6,1169,0,950,-96.56744,35.76878,"EIA-757, Natural Gas Processing Plant Survey"
-97.86941,35.27546,288,Minco Plant,Superior Pipeline Company LLC,Superior Pipeline Company LLC,Tuttle,OK,Grady,73089,2017,18,6.7,1190,0,700,-97.86941,35.27546,"EIA-757, Natural Gas Processing Plant Survey"
-93.25914,32.78008,289,Minden Gas Plant,ETC Field Services LLC,ETC Field Services LLC,Minden,LA,Webster,71055,2017,115,59,1140,0,235,-93.25914,32.78008,"EIA-757, Natural Gas Processing Plant Survey"
-103.46528,31.5225,290,MiVida JV Processing Plant,ETC Field Services LLC,ETC Field Services LLC,Barstow,TX,Ward,79719,2017,200,190,1280,0,20000,-103.46528,31.5225,"EIA-757, Natural Gas Processing Plant Survey"
-88.17294,30.38953,291,Mobile Bay,"DCP Operating Company, LP","DCP Operating Company, LP",Coden,AL,Mobile,36523,2017,300,60,1090,0,70000,-88.17294,30.38953,"EIA-757, Natural Gas Processing Plant Survey"
-80.5583,39.5527,292,Mobley Plant,Markwest Liberty Midstream & Res, ,Smithfield,WV,Wetzel,26437,2017,920,886,1172.22,0,0,-80.5583,39.5527,"EIA-757, Natural Gas Processing Plant Survey"
-100.39655,36.89586,293,Mocane Station,ETC Field Services LLC,ETC Field Services LLC,Beaver,OK,Beaver,73932,2017,55,29,1200,0,714,-100.39655,36.89586,"EIA-757, Natural Gas Processing Plant Survey"
-83.95389,43.62672,294,Monitor 11,"Breitburn Operating, L.P.","Breitburn Operating, L.P.",Bay City,MI,Bay,48706,2017,0,0,0,0,1332,-83.95389,43.62672,"EIA-757, Natural Gas Processing Plant Survey"
-87.31064,31.47527,295,Monroeville Plant,Palmer Petroleum Inc,Palmer Petroleum Inc,Monroeville,AL,Monroe,36460,2017,2,0,1300,0,2142,-87.31064,31.47527,"EIA-757, Natural Gas Processing Plant Survey"
-103.31194,32.61028,296,Monument Plant,Targa Midstream Services LLC,"Targa Midstream Services, LLC",Monument,NM,Lea,88265,2017,85,81,1265,0,5357,-103.31194,32.61028,"EIA-757, Natural Gas Processing Plant Survey"
-99.15753,36.43792,297,Mooreland Plant,"DCP Operating Company, LP","DCP Operating Company, LP",Mooreland,OK,Woodward,73852,2017,130,80,1180,0,4117,-99.15753,36.43792,"EIA-757, Natural Gas Processing Plant Survey"
-102.74105,38.88652,298,Mount Pearl Gas Plant, ,Citation Oil & Gas Corp.,Kit Carson,CO,Cheyenne,80825,2017,1,1,1227,0,1429,-102.74105,38.88652,"EIA-757, Natural Gas Processing Plant Survey"
-92.684,32.57682,299,Mt. Olive Plant,ETC PennTex LLC, ,Ruston,LA,Lincoln,71270,2017,200,150,1082,0,8500,-92.684,32.57682,"EIA-757, Natural Gas Processing Plant Survey"
-97.7645,35.30731,300,Mustang,"DCP Operating Company, LP","DCP Operating Company, LP",Tuttle,OK,Grady,73089,2017,34,25,1160,0,1100,-97.7645,35.30731,"EIA-757, Natural Gas Processing Plant Survey"
-98.0587,36.60893,301,Nash,"SemGas, LP","SemGas, LP",Nash,OK,Grant,73761-5073,2017,40,0,0,0,0,-98.0587,36.60893,"EIA-757, Natural Gas Processing Plant Survey"
-100.76298,37.15921,302,National Helium Plant,"DCP Operating Company, LP","DCP Operating Company, LP",Liberal,KS,Seward,67901-2079,2017,620,340,1080,0,4000,-100.76298,37.15921,"EIA-757, Natural Gas Processing Plant Survey"
-80.86233,39.75989,303,Natrium Extraction and Fractionation Plant,"Blue Racer Midstream, LLC","Blue Racer Midstream, LLC",Proctor,WV,Marshall,26055,2017,450,424,1217,0,150100,-80.86233,39.75989,"EIA-757, Natural Gas Processing Plant Survey"
-93.46947,30.77214,304,Neale,Texas Petroleum Investment Company, ,Merryville,LA,Beauregard,70653,2017,5,3,1072,0,1143,-93.46947,30.77214,"EIA-757, Natural Gas Processing Plant Survey"
-91.44561,29.73397,305,Neptune Gas Plant,Enterprise Gas Processing LLC,Enterprise Gas Processing LLC,Centerville,LA,St. Mary,70522,2017,650,536,1153,0,0,-91.44561,29.73397,"EIA-757, Natural Gas Processing Plant Survey"
-103.04125,48.36457,306,Nesson Plant,Nesson Gathering System LLC,Nesson Gathering System LLC,Tioga,ND,Williams,58852,2017,35,26.397,1340,0,10119,-103.04125,48.36457,"EIA-757, Natural Gas Processing Plant Survey"
-95.18893,33.02957,307,New Hope,Enbridge G & P (East Texas) L.P.,Enbridge G & P (East Texas) L.P.,Scroggins,TX,Franklin,75163,2017,10,6,1054,0,4000,-95.18893,33.02957,"EIA-757, Natural Gas Processing Plant Survey"
-104.55599,43.63773,308,Newcastle Complex,"Western Gas Partners, LP","Western Gas Partners, LP",Newcastle,WY,Weston,82710,2017,3,2,1550,0,4005,-104.55599,43.63773,"EIA-757, Natural Gas Processing Plant Survey"
-99.30343,35.9409,309,Nine Mile Gas Plant,"Enbridge G&P (Oklahoma), L.P.","Enbridge G & P (Oklahoma), L.P.",Leedy,OK,Dewey,73654-9712,2017,30,30,1143,0,0,-99.30343,35.9409,"EIA-757, Natural Gas Processing Plant Survey"
-102.92196,48.69187,310,Norse Gas Plant,Kinder Morgan,Kinder Morgan,McGregor,ND,Divide,58755,2017,25,22,1437,0,6123,-102.92196,48.69187,"EIA-757, Natural Gas Processing Plant Survey"
-86.78352,31.31518,311,North Beach Plant,"Plains Gas Solutions, LLC", ,Evergreen,AL,Conecuha,36401,2017,10,0,0,0,2000,-86.78352,31.31518,"EIA-757, Natural Gas Processing Plant Survey"
-90.92866,29.62577,312,North Terrebonne Plant,Enterprise Gas Processing LLC,Enterprise Gas Processing LLC,Gibson,LA,Terrebonne,70356,2017,1100,650,1100,0,2000,-90.92866,29.62577,"EIA-757, Natural Gas Processing Plant Survey"
-96.2289,34.85257,313,Northridge Plant, ,"Enlink Midstream Services, LLC",Calvin,OK,Hughes,74531,2017,200,56,1134,0,5714,-96.2289,34.85257,"EIA-757, Natural Gas Processing Plant Survey"
-104.58667,40.35291,314,O`Connor,"DCP Operating Company, LP","DCP Operating Company, LP",Kersey,CO,Weld,80644,2017,155,153,1300,0,2300,-104.58667,40.35291,"EIA-757, Natural Gas Processing Plant Survey"
-80.69897,39.87685,315,Oak Grove,Williams Partners LP,Williams Partners LP,Moundsville,WV,Marshall,56041,2017,200,75,1212,0,3213,-80.69897,39.87685,"EIA-757, Natural Gas Processing Plant Survey"
-98.08591,35.73434,316,Okarche,"DCP Operating Company, LP","DCP Operating Company, LP",Okarche,OK,Kingfisher,73762-9628,2017,165,150,1165,0,3095,-98.08591,35.73434,"EIA-757, Natural Gas Processing Plant Survey"
-95.74768,29.04718,317,Old Ocean Gas Plant,Arrowhead Pipeline L.P,Harvest Pipeline Company,Sweeny,TX,Brazoria,77480,2017,140,65,1100,0,7500,-95.74768,29.04718,"EIA-757, Natural Gas Processing Plant Survey"
-110.34384,41.77737,318,Opal Gas Plant,Williams,"Williams Midstream Services, LLC",Opal,WY,Lincoln,83124,2017,1100,660,0,0,37000,-110.34384,41.77737,"EIA-757, Natural Gas Processing Plant Survey"
-108.90337,44.34172,319,Oregon Basin Gas Plant,Merit Energy Company,Marathon Oil Company,Cody,WY,Park,82414,2017,6,5.6,928.4,0,952,-108.90337,44.34172,"EIA-757, Natural Gas Processing Plant Survey"
-103.89649,31.81067,320,Orla Plant,"ETC Texas Pipeline, Ltd.","ETC Texas Pipeline, Ltd.",Orla,TX,Reeves,79770,2017,210,160,1220,0,1350,-103.89649,31.81067,"EIA-757, Natural Gas Processing Plant Survey"
-96.11631,36.68032,321,Osage Hills Gas Plant,"Osage Hills Pipeline Company, LLC",Alex Gas Systems,Barnsdall,OK,Osage,74002,2017,5,3,0,0,500,-96.11631,36.68032,"EIA-757, Natural Gas Processing Plant Survey"
-100.62102,35.78808,322,Osborne Plant,Enbridge Pipelines (Texas Gathering) L.P.,Enbridge Pipelines (Texas Gathering) L.P.,Miami,TX,Roberts,75059,2017,25,0,0,0,476,-100.62102,35.78808,"EIA-757, Natural Gas Processing Plant Survey"
-101.21771,30.68246,323,Ozona,Chevron,Chevron,Ozona,TX,Crockett,76943,2017,32,9,1290,0,648,-101.21771,30.68246,"EIA-757, Natural Gas Processing Plant Survey"
-101.21771,30.68246,324,Ozona Gas Processing Plant,"DCP Operating Company, LP","DCP Operating Company, LP",Ozona,TX,Crockett,76943-1029,2017,120,85,1160,0,15833,-101.21771,30.68246,"EIA-757, Natural Gas Processing Plant Survey"
-96.5491,35.55356,325,Paden Plant,Kinder Morgan (Scissortail Energy LLC),Kinder Morgan (Scissortail Energy LLC),Paden,OK,Okfuskee,74860,2017,90,50,1235,0,1550,-96.5491,35.55356,"EIA-757, Natural Gas Processing Plant Survey"
-110.85623,41.31806,326,Painter,Merit Energy Company,Merit Energy Company,Evanston,WY,Uinta,82931,2017,270,185,730,0,13000,-110.85623,41.31806,"EIA-757, Natural Gas Processing Plant Survey"
-101.41019,35.70127,327,Panhandle Superplant,"DCP Operating Company, LP","DCP Operating Company, LP",Borger,TX,Hutchinson County,79007,2017,515,275,1217,0,31142,-101.41019,35.70127,"EIA-757, Natural Gas Processing Plant Survey"
-94.25724,32.18278,328,Panola,"Enable Midstream Partners, LP","Enable Texola G&P, LLC",Carthage,TX,Panola,75633,2017,100,75,1110,0,1000,-94.25724,32.18278,"EIA-757, Natural Gas Processing Plant Survey"
-94.26639,32.19111,329,Panola II Processing Plant,BTA Gas Processing LLC,BTA Gas Processing LLC,Carthage,TX,Panola,75633,2017,120,60,1117,0,267,-94.26639,32.19111,"EIA-757, Natural Gas Processing Plant Survey"
-99.20645,35.51503,330,Panther Creek Natural Gas Processing,ONEOK,ONEOK,Canute,OK,Custer,73626,2017,75,75,1120,0,875,-99.20645,35.51503,"EIA-757, Natural Gas Processing Plant Survey"
-102.1933,31.64152,331,Panther Plant,La Grange Acquisition LP,Energy Transfer Company,Rankin,TX,Upton,79778,2017,210,185,1326,0,0,-102.1933,31.64152,"EIA-757, Natural Gas Processing Plant Survey"
-108.11081,39.48787,332,Parachute Creek Gas Plants,Williams,Williams,Parachute,CO,Garfield,81635,2017,1000,545,1073,0,16000,-108.11081,39.48787,"EIA-757, Natural Gas Processing Plant Survey"
-88.49639,30.3825,333,Pascagoula Gas Processing Plant,Enterprise Gas Processing LLC,Enterprise Gas Processing LLC, ,MS,Jackson,39567,2017,750,400,1200,0,1340,-88.49639,30.3825,"EIA-757, Natural Gas Processing Plant Survey"
-108.5101,41.59022,334,Patrick Draw Gas Plant,"Mountain Gas Resources, LLC",Anadarko Petroleum,Rock Springs,WY,Sweetwater,82901,2017,120,70,1165,0,24500,-108.5101,41.59022,"EIA-757, Natural Gas Processing Plant Survey"
-91.34056,29.72611,335,Patterson II Plant,"Plains Gas Solutions, LLC","Plains Gas Solutions, LLC",Patterson,LA,St. Mary,70392,2017,170,134,1097,0,150,-91.34056,29.72611,"EIA-757, Natural Gas Processing Plant Survey"
-103.52665,31.49826,336,Pecos Bend Gas Processing Plant,"Caprock Midstream, LLC","Caprock Permian Processing, LLC",Pecos,TX,Reeves,79772,2017,153,30,1386,0,437,-103.52665,31.49826,"EIA-757, Natural Gas Processing Plant Survey"
-104.26937,32.77049,337,Pecos Diamond,"DCP Operating Company, LP","DCP Operating Company, LP",Artesia,NM,Eddy,88210,2017,40,0,0,0,0,-104.26937,32.77049,"EIA-757, Natural Gas Processing Plant Survey"
-103.48953,31.39066,338,Pecos Gas Plant,"EagleClaw Midstream Ventures, LLC","EagleClaw Midstream Ventures, LLC",Pecos,TX,Reeves,79772,2017,250,120,1300,0,2040,-103.48953,31.39066,"EIA-757, Natural Gas Processing Plant Survey"
-103.81259,31.88155,339,Pecos River Plant,"Medallion Delaware Basin, LLC","Medallion Operating Company, LLC",Orla,TX,Reeves,79770,2017,30,19,1248,0,4300,-103.81259,31.88155,"EIA-757, Natural Gas Processing Plant Survey"
-102.13806,31.66167,340,Pegasus Plant,"DCP Operating Company, LP",DCP Midstream,Midkiff,TX,Midland,79755,2017,100,60,1287,0,42,-102.13806,31.66167,"EIA-757, Natural Gas Processing Plant Survey"
-91.34278,29.69167,341,Pelican Plant, ,"Enlink Pelican Plant, LLC",Patterson,LA,St. Mary,70392,2017,600,236,1090,0,0,-91.34278,29.69167,"EIA-757, Natural Gas Processing Plant Survey"
-79.94301,40.81018,342,Penn Cryo Gas Plant,"Mountain Gathering, LLC","Mountain Gathering, LLC",Renfrew,PA,Butler,16053,2017,144,140,1180,0,5733,-79.94301,40.81018,"EIA-757, Natural Gas Processing Plant Survey"
-97.08714,35.892,343,Perkins Plant,Superior Pipeline Company LLC,Superior Pipeline Company LLC,Perkins,OK,Payne,74059,2017,30,3.5,1280,0,700,-97.08714,35.892,"EIA-757, Natural Gas Processing Plant Survey"
-111.15086,40.93447,344,Pineview Gas Plant, ,Citation Oil & Gas Corp.,Coalville,UT,Summit,84017,2017,2,1,1870,0,5000,-111.15086,40.93447,"EIA-757, Natural Gas Processing Plant Survey"
-110.32907,41.79228,345,Pioneer Cryogenic Plant,"Enterprise Gas Processing,LLC",Enterprise Gas Processing LLC,Opal,WY,Lincoln,83124,2017,800,758,1115,0,0,-110.32907,41.79228,"EIA-757, Natural Gas Processing Plant Survey"
-91.23957,30.23539,346,Plaquemine Plant,Enlink Midstream,"EnLink LIG Liquids, LLC",Plaquemine,LA,Iberville Parish,70764,2017,225,162,1052,0,11905,-91.23957,30.23539,"EIA-757, Natural Gas Processing Plant Survey"
-108.1186,39.16983,347,Plateau Creek Plant,Caerus Piceance LLC, ,Mesa,CO,Mesa,81643,2017,1,1,1075,0,300,-108.1186,39.16983,"EIA-757, Natural Gas Processing Plant Survey"
-104.75101,40.1429,348,Platte Valley Gas Plant,"Western Gas Partners, LP","Western Gas Partners, LP",Ft Lupton,CO,Weld,80621,2017,105,100,1283,0,15000,-104.75101,40.1429,"EIA-757, Natural Gas Processing Plant Survey"
-104.79592,40.23317,349,Platteville,"DCP Operating Company, LP","DCP Operating Company, LP",Platteville,CO,Weld,80651,2017,70,60,1270,0,3600,-104.79592,40.23317,"EIA-757, Natural Gas Processing Plant Survey"
-108.24194,39.32781,350,Premier DeBeque,"Red Rock Gathernig Company, LLC","Red Rock Gathering Company, LLC",Grand Junction,CO,Mesa County,81505,2017,28,20,1047,0,1429,-108.24194,39.32781,"EIA-757, Natural Gas Processing Plant Survey"
-110.58352,39.65468,351,Price Raptor Plant,Dominion Energy Questar Field Services,Dominion Energy Questar Pipeline,Price,UT,Carbon,84501,2017,130,0,1046,0,3571,-110.58352,39.65468,"EIA-757, Natural Gas Processing Plant Survey"
-98.78912,32.46847,352,Ranger, ,"Ranger Gas Gathering, L.L.C.",Ranger,TX,Eastland,76470-0079,2017,8.5,4.8,1380,0,714,-98.78912,32.46847,"EIA-757, Natural Gas Processing Plant Survey"
-99.26071,28.41449,353,Raptor Gas Plant,"Carnero Processing, LLC","Carnero Processing, LLC",Cotulla,TX,La Salle,78014,2017,260,136,1292,0,0,-99.26071,28.41449,"EIA-757, Natural Gas Processing Plant Survey"
-101.27979,32.01308,354,Rawhide,"DCP Operating Company, LP","DCP Operating Company, LP",Big Spring,TX,Sterling,79720,2017,75,50,1090,0,630,-101.27979,32.01308,"EIA-757, Natural Gas Processing Plant Survey"
-101.70201,31.89006,355,Rebel Plant,La Grange Acquisition LP,Energy Transfer Company,Garden City,TX,Glasscock,79739,2017,200,200,1300,0,0,-101.70201,31.89006,"EIA-757, Natural Gas Processing Plant Survey"
-103.92966,31.79964,356,Red Bluff Plant,ETC Field Services LLC,ETC Field Services LLC,Orla,TX,Reeves,79770,2017,220,180,1220,0,1350,-103.92966,31.79964,"EIA-757, Natural Gas Processing Plant Survey"
-103.52231,32.21307,357,Red Hills,"Lucid Energy Delaware, LLC", ,Jal,NM,Lea,88252,2017,275,130,1150,0,0,-103.52231,32.21307,"EIA-757, Natural Gas Processing Plant Survey"
-109.28061,40.19667,358,Red Wash Area,Andeavor Field Services LLC,Andeavor Field Services LLC,Vernal,UT,Uintah,84078,2017,300,198,1102,0,0,-109.28061,40.19667,"EIA-757, Natural Gas Processing Plant Survey"
-103.53851,47.6153,359,Red Wing Creek Gas Plant II,True Oil LLC,True Oil LLC,Arnegard,ND,McKenzie,58835,2017,12,4,1475,0,9143,-103.53851,47.6153,"EIA-757, Natural Gas Processing Plant Survey"
-103.86426,40.82612,360,Redtail Gas Plant,Whiting Oil And Gas Corporation,Whiting Oil And Gas Corporation,New Raymer,CO,Weld,80742,2017,70,17,1320,0,7620,-103.86426,40.82612,"EIA-757, Natural Gas Processing Plant Survey"
-98.42291,37.82616,361,Reno Plant,Superior Pipeline Company LLC,Superior Pipeline Company LLC,Turon,KS,Reno,67583,2017,8,2,1370,0,800,-98.42291,37.82616,"EIA-757, Natural Gas Processing Plant Survey"
-99.51231,27.81368,362,Reveille Cryogenic Plant,"Howard Midstream Energy Partners, LLC","Texas Pipeline Processing, LLC",Laredo,TX,Webb,78045,2017,200,75,1098,0,715,-99.51231,27.81368,"EIA-757, Natural Gas Processing Plant Survey"
-107.83407,39.53288,363,Rifle Gas Plant-Rifle Creek,Xcel Energy,Xcel Energy, ,CO,Garfield,81650,2017,50,25,1070,0,2857,-107.83407,39.53288,"EIA-757, Natural Gas Processing Plant Survey"
-101.90423,32.24282,364,Riptide Plant, ,Coronado Midstream LLC,Lenorah,TX,Martin,79749,2017,100,85,1270,0,6600,-101.90423,32.24282,"EIA-757, Natural Gas Processing Plant Survey"
-102.24722,31.78222,365,Roberts Ranch,"DCP Operating Company, LP","DCP Operating Company, LP",Odessa,TX,Midland,79766,2017,70,70,1100,0,362,-102.24722,31.78222,"EIA-757, Natural Gas Processing Plant Survey"
-102.35017,48.0642,366,Robinson Lake Gas Plant,Andeavor Field Services LLC,Andeavor Field Services LLC,New Town,ND,Mountrail,58673,2017,140,97,1550,0,29050,-102.35017,48.0642,"EIA-757, Natural Gas Processing Plant Survey"
-98.03453,36.17993,367,Rodman,Mustang Ventures Company,"Mustang Gas Products, LLC",Waukomis,OK,Garfield,73773,2017,80,68,1200,0,580,-98.03453,36.17993,"EIA-757, Natural Gas Processing Plant Survey"
-99.52159,35.54953,368,Roger Mills,Enable Midstream,Enable Midstream Partners,Cheyenne,OK,Roger Mills,73628,2017,100,30,1065,0,1200,-99.52159,35.54953,"EIA-757, Natural Gas Processing Plant Survey"
-83.04545,36.33461,369,Rogersville Cryogenic Plant,"Continuum Midstream, LLC","Continuum Midstream, LLC",Rogersville,TN,Hawkins,37857,2017,25,12,1225,0,2857,-83.04545,36.33461,"EIA-757, Natural Gas Processing Plant Survey"
-104.38744,40.11756,370,Roggen,"DCP Operating Company, LP","DCP Operating Company, LP",Roggen,CO,Weld,80652,2017,75,65,1300,0,5950,-104.38744,40.11756,"EIA-757, Natural Gas Processing Plant Survey"
-98.75314,36.66771,371,Rose Valley,"SemGas, LP","SemGas, LP",Alva,OK,Woods,73717-5073,2017,400,250,1130,0,0,-98.75314,36.66771,"EIA-757, Natural Gas Processing Plant Survey"
-95.06294,32.78708,372,Rosewood Plant,ETC Field Services LLC,ETC Field Services LLC,Gilmer,TX,Upshur,75644,2017,12,4,1103,0,467,-95.06294,32.78708,"EIA-757, Natural Gas Processing Plant Survey"
-96.43593,31.46502,373,Rothermel,Linn Energy LLC, ,Groesbeck,TX,Limestone,76642,2017,15,15,1080,0,714,-96.43593,31.46502,"EIA-757, Natural Gas Processing Plant Survey"
-78.97158,41.72062,374,Roystone Gas Plant,Elkhorn Holdings LLC,Elkhorn Gas Processing,Sheffield,PA,Warren,16347,2017,9,6,1251,0,3036,-78.97158,41.72062,"EIA-757, Natural Gas Processing Plant Survey"
-105.85214,43.11497,375,Sage Creek Natural Gas Processing Plant,ONEOK,ONEOK,Glenrock,WY,Converse,82637,2017,50,20,1300,0,200,-105.85214,43.11497,"EIA-757, Natural Gas Processing Plant Survey"
-97.62442,33.63325,376,Saint Jo Processing Plant,"Kinder Morgan - Copano Field Services/North Texas, LLC", ,Montague,TX,Montague,76251,2017,110,73,1082,0,0,-97.62442,33.63325,"EIA-757, Natural Gas Processing Plant Survey"
-101.93522,32.21095,377,Sale Ranch Gas Plant,West Texas Gas Processing LP,West Texas Gas Processing LP,Stanton,TX,Martin,79782,2017,250,210,1247,0,750,-101.93522,32.21095,"EIA-757, Natural Gas Processing Plant Survey"
-89.0156,38.55556,378,Salem Gas Plant, ,Citation Oil & Gas Corp.,Salem,IL,Marion,62881,2017,1.5,0.85,0,0,1500,-89.0156,38.55556,"EIA-757, Natural Gas Processing Plant Survey"
-100.86873,33.23243,379,Salt Creek Processing Plant,Occidental Permian Ltd,Occidental Permian Ltd,Snyder,TX,Kent,79550,2017,165,160,1170,0,1300,-100.86873,33.23243,"EIA-757, Natural Gas Processing Plant Survey"
-107.96831,36.7319,380,San Juan Gas Plant,"Hilcorp San Juan, LLC.",Harvest Pipeline Company,Bloomfield,NM,San Juan,87413,2017,550,372,1152,0,4000,-107.96831,36.7319,"EIA-757, Natural Gas Processing Plant Survey"
-98.40911,29.212,381,San Martin Natural Gas Plant,Enterprise Hydrocarbons L.P.,Enterprise Hydrocarbons L.P.,Elmendorf,TX,Bexar,78112-9771,2017,200,145,1251,0,0,-98.40911,29.212,"EIA-757, Natural Gas Processing Plant Survey"
-118.79622,34.38792,382,Santa Clara Valley Gas Plant,"Vintage Pipeline, Inc.","Vintage Pipeline, Inc.",Piru,CA,Ventura,93040,2017,17,10,1250,0,2610,-118.79622,34.38792,"EIA-757, Natural Gas Processing Plant Survey"
-103.60792,33.05755,383,Saunders Plant,"Targa Midstream Services, LLC","Targa Midstream Services, LLC",Lovington,NM,Lea,88260,2017,70,38,1220,0,2286,-103.60792,33.05755,"EIA-757, Natural Gas Processing Plant Survey"
-92.06669,29.89667,384,Sea Robin Gas Processing Plant,"Enterprise Gas Processing, LLC","Enterprise Gas Processing, LLC",Erath,LA,Vermillion,70533,2017,660,100,1080,0,350,-92.06669,29.89667,"EIA-757, Natural Gas Processing Plant Survey"
-102.68231,32.75757,385,Seminole Gas Processing Plant,Oxy USA INC,Oxy USA INC,Seminole,TX,Gaines,79360,2017,285,275,0,0,10000,-102.68231,32.75757,"EIA-757, Natural Gas Processing Plant Survey"
-99.18667,32.27666,386,Shackelford Plant,Dgp Taurus Gp Holding LLC,Davis Gas Processing Inc,Cisco,TX,Eastland,76437,2017,15,7,1262,0,750,-99.18667,32.27666,"EIA-757, Natural Gas Processing Plant Survey"
-99.22028,32.85944,387,Shackelford Plant,"Targa Midstream Services, LLC","Targa Midstream Services, LLC",Albany,TX,Shackelford, ,2017,15,6,1321,0,4528,-99.22028,32.85944,"EIA-757, Natural Gas Processing Plant Survey"
-95.36517,32.43741,388,Shamburger Lake Plant,Valence Operating Company,Valence Operating Company,Tyler,TX,Smith,75706,2017,2,0.115,1295,0,355,-95.36517,32.43741,"EIA-757, Natural Gas Processing Plant Survey"
-96.63621,33.68263,389,Sherman,"SemGas, LP","SemGas, LP",Sherman,TX,Grayson,75092-6707,2017,30,30,0,0,350,-96.63621,33.68263,"EIA-757, Natural Gas Processing Plant Survey"
-85.36458,44.07761,390,Sherman 35,"Breitburn Operating, L.P.","Breitburn Operating, L.P.",LeRoy,MI,Osceola,49655,2017,2,2,0,0,714,-85.36458,44.07761,"EIA-757, Natural Gas Processing Plant Survey"
-80.68469,39.27611,391,Sherwood Plant,MarkWest Liberty Midstream & Resource,MarkWest Liberty Midstream & Resources,West Union,WV,Doddridge,26456,2017,1800,1481,1225,0,0,-80.68469,39.27611,"EIA-757, Natural Gas Processing Plant Survey"
-98.8713,27.94161,392,Shilling Gas Plant,Enterprise Hydrocarbons L.P.,Enterprise Products Operating LLC,Freer,TX,Webb,78357-2032,2017,110,110,1200,0,0,-98.8713,27.94161,"EIA-757, Natural Gas Processing Plant Survey"
-97.58597,34.49358,393,Sholem Alechem,"DCP Operating Company, LP","DCP Operating Company, LP",Duncan,OK,Stephens-Carter,73533,2017,60,55,1235,0,5950,-97.58597,34.49358,"EIA-757, Natural Gas Processing Plant Survey"
-97.56557,27.79971,394,Shoup Cryogenic Plant,Enterprise Hydrocarbons L.P.,Enterprise Hydrocarbons L.P.,Corpus Christi,TX,Nueces,78410,2017,285,255,1120,0,1700,-97.56557,27.79971,"EIA-757, Natural Gas Processing Plant Survey"
-118.1756,33.81056,395,Signal Hill West Unit Gas Plant,"Signal Hill Petroleum, Inc.","Signal Hill Petroleum, Inc.",Signal Hill,CA,Los Angeles,90755,2017,4,1,1476,0,952,-118.1756,33.81056,"EIA-757, Natural Gas Processing Plant Survey"
-104.60421,41.28857,396,Silo Gas Plant,"Kaiser-Frontier Midstream, LLC","Kaiser-Frontier Midstream, LLC",Cheyenne,WY,Laramie,82009,2017,15,6,1400,0,2140,-104.60421,41.28857,"EIA-757, Natural Gas Processing Plant Survey"
-97.67461,32.8013,397,Silver Creek Plant,"Enlink Texas Processing, LP","Enlink Texas Processing, LP",Weatherford,TX,Parker,76087,2017,200,146,1164,0,1287,-97.67461,32.8013,"EIA-757, Natural Gas Processing Plant Survey"
-97.85359,28.55857,398,Silver Oak Plant 1,APL South Tex Processing Company LP,TPL South Tex Processing Company LP,Tuleta,TX,Bee,78162,2017,260,179,1292,0,0,-97.85359,28.55857,"EIA-757, Natural Gas Processing Plant Survey"
-108.93586,44.97069,399,Silvertip,Incremental Oil and Gas,Incremental Oil and Gas,Powell,WY,Park,82435,2017,5,5,0,0,2140,-108.93586,44.97069,"EIA-757, Natural Gas Processing Plant Survey"
-108.31179,40.95077,400,Skull Creek Dew Point,Dominion Energy Questar Pipeline,Dominion Energy Questar Pipeline,Craig,CO,Moffat,81625,2017,45,20,1108,0,1428,-108.31179,40.95077,"EIA-757, Natural Gas Processing Plant Survey"
-102.55952,33.46809,401,Slaughter Gasoline Plant,Oxy,OXY,Sundown,TX,Hockley,79372,2017,35,30,1400,0,446000,-102.55952,33.46809,"EIA-757, Natural Gas Processing Plant Survey"
-102.56162,33.459,402,Slaughter Gasoline Plant (Mallet),Oxy,OXY,Sundown,TX,Hockley,79372,2017,345,340,1250,0,2200,-102.56162,33.459,"EIA-757, Natural Gas Processing Plant Survey"
-93.53111,32.51583,403,Sligo Processing Facility,Enable Midstream Partners,Enable Midstream Partners,Haughton,LA,Bossier,71037,2017,230,140,1100,0,7857,-93.53111,32.51583,"EIA-757, Natural Gas Processing Plant Survey"
-82.08443,37.92629,404,Smokehouse,"Core Appalachia Operating, LLC","Core Appalachia Operating, LLC",Chapmanville,WV,Logan,25508,2017,13,7,1279,0,2142,-82.08443,37.92629,"EIA-757, Natural Gas Processing Plant Survey"
-100.95875,32.75157,405,Snyder Gasoline Plant,ExxonMobil Corporation,Kinder Morgan CO2,Snyder,TX,Scurry,79549,2017,90,59,1300,0,1000,-100.95875,32.75157,"EIA-757, Natural Gas Processing Plant Survey"
-100.64732,30.29943,406,Sonora Plant,Enterprise Hydrocarbons LP,Enterprise Products Operating LLC,Sonora,TX,Sutton,76950,2017,120,95,1141,0,750,-100.64732,30.29943,"EIA-757, Natural Gas Processing Plant Survey"
-98.11164,35.51074,407,South Canadian,Enable Products LLC,Enable Products LLC,Calumet,OK,Canadian,73014,2017,200,200,1152,0,0,-98.11164,35.51074,"EIA-757, Natural Gas Processing Plant Survey"
-104.13631,32.31319,408,South Carlsbad Dew Point Plant,Enterprise Field Services LLC,Enterprise Products Operating LLC,Loving,NM,Eddy,88256,2017,200,50,1060,0,1200,-104.13631,32.31319,"EIA-757, Natural Gas Processing Plant Survey"
-103.82968,32.16269,409,South Eddy Cryo Plant,Enterprise Field Services LLC,Enterprise Products Operating LLC,Malaga,NM,Eddy,88263,2017,200,200,1246,0,0,-103.82968,32.16269,"EIA-757, Natural Gas Processing Plant Survey"
-101.46667,30.44583,410,Southwest Ozona,"DCP Operating Company, LP","DCP Operating Company, LP",Ozona,TX,Crockett,76943-1029,2017,90,85,1160,0,1429,-101.46667,30.44583,"EIA-757, Natural Gas Processing Plant Survey"
-101.04801,36.0858,411,Spearman Plant,ETC Field Serivces LLC,ETC Field Services LLC,Spearman,TX,Ochiltree,79081,2017,100,80,1210,0,1657,-101.04801,36.0858,"EIA-757, Natural Gas Processing Plant Survey"
-104.88419,40.08894,412,Spindle,"DCP Operating Company, LP","DCP Operating Company, LP",Ft. Lupton,CO,Weld,80621,2017,39,39,1275,0,7270,-104.88419,40.08894,"EIA-757, Natural Gas Processing Plant Survey"
-98.21925,37.37154,413,Spivey,Atlas KS Energy LLC,"Pioneer Exploration, LLC",Harper,KS,Harper,67058-8432,2017,22,8,1190,0,7620,-98.21925,37.37154,"EIA-757, Natural Gas Processing Plant Survey"
-101.79196,31.85783,414,Spraberry Plant,"Navitas Midstream Midland Basin, LLC", ,Midland,TX,Midland,79706,2017,125,63,1300,0,0,-101.79196,31.85783,"EIA-757, Natural Gas Processing Plant Survey"
-103.51904,48.22924,415,SpringBrook Gas Plant,1804 Ltd,1804 LTD,Williston,ND,Williams,58801,2017,0,0,0,0,0,-103.51904,48.22924,"EIA-757, Natural Gas Processing Plant Survey"
-103.94408,48.22825,416,Stateline Natural Gas Processing Plant,ONEOK,ONEOK,Williston,ND,Williams,58801,2017,220,167,1424,0,17358,-103.94408,48.22825,"EIA-757, Natural Gas Processing Plant Survey"
-97.70102,34.46858,417,Stephens Natural Gas Processing,ONEOK,ONEOK,Velma,OK,Stephens,73491,2017,30,27,1145,0,500,-97.70102,34.46858,"EIA-757, Natural Gas Processing Plant Survey"
-101.23611,31.97028,418,Sterling Plant,Targa Resources,Targa Resources,Sterling City,TX,Sterling,76951,2017,90,85,1250,0,1610,-101.23611,31.97028,"EIA-757, Natural Gas Processing Plant Survey"
-94.34102,31.73996,419,Stockman Plant,Enable Midstream Partners,Enable Midstream Partners,Center,TX,Shelby,75935,2017,15,1,1070,0,714,-94.34102,31.73996,"EIA-757, Natural Gas Processing Plant Survey"
-101.81559,35.9621,420,Sunray Gas Plant,ETC Field Services LLC,ETC Field Services LLC,Sunray,TX,Moore,79086,2017,165,145,1185,0,4050,-101.81559,35.9621,"EIA-757, Natural Gas Processing Plant Survey"
-100.58885,30.5069,421,Sutton Sonora Plant,"DCP Operating Company, LP","DCP Operating Company, LP",Sonora,TX,Sutton,76493,2017,62,62,1175,0,4523,-100.58885,30.5069,"EIA-757, Natural Gas Processing Plant Survey"
-97.39789,33.17153,422,Sweetwater Creek Gas Plant,Aethon United BR LP,Aethon Energy Operating LLC,Decatur,TX,Wise,76234,2017,12,8,1120,0,5714,-97.39789,33.17153,"EIA-757, Natural Gas Processing Plant Survey"
-99.80493,35.36307,423,Sweetwater Plant,"Enbridge G&P (Oklahoma), L.P.","Enbridge G & P (Oklahoma), L.P.",Sayre,OK,Beckham,73662,2017,125,65,1143,0,0,-99.80493,35.36307,"EIA-757, Natural Gas Processing Plant Survey"
-103.14725,32.42494,424,Targa Midstream Services LLC, ,"Targa Midstream Services, LLC",Eunice,NM,Lea,88231-1909,2017,115,100,1029,0,713,-103.14725,32.42494,"EIA-757, Natural Gas Processing Plant Survey"
-102.64083,31.50111,425,Targa Sandhills Plt,Targa Resources,Targa Resources,Crane,TX,Crane,79743,2017,180,152,1230,0,9285,-102.64083,31.50111,"EIA-757, Natural Gas Processing Plant Survey"
-101.91115,32.37703,426,Tarzan Gas Plant,Targa Resources,Targa Resources,Lenorah,TX,Martin,79749,2017,10,8.7,1050,0,1876,-101.91115,32.37703,"EIA-757, Natural Gas Processing Plant Survey"
-96.94472,35.20639,427,Tecumseh Gas Plant,Enerfin Resources Company,Enerfin Resources I LP,Tecumseh,OK,Pottatomie,74873,2017,20,10,1310,0,1400,-96.94472,35.20639,"EIA-757, Natural Gas Processing Plant Survey"
-94.94083,29.37583,428,Texas City Processing Plant,Kinder Morgan Tejas Pipeline LLC,Kinder Morgan Tejas Pipeline LLC,Texas City,TX,Galveston,77590,2017,65,65,1045,0,400,-94.94083,29.37583,"EIA-757, Natural Gas Processing Plant Survey"
-98.79778,35.73944,429,Thomas,Enable Products LLC,Enable Products LLC,Thomas,OK,Custer,73669,2017,150,93,1051,0,0,-98.79778,35.73944,"EIA-757, Natural Gas Processing Plant Survey"
-98.93725,27.25736,430,Thompsonville Gas Plant,Enterprise Hydrocarbons LP,Enterprise Hydrocarbons L.P.,Mirando City,TX,Jim Hogg,77369,2017,330,305,1140,0,0,-98.93725,27.25736,"EIA-757, Natural Gas Processing Plant Survey"
-98.13589,28.40578,431,Three Rivers,"DCP Operating Company, LP","DCP Operating Company, LP",George West,TX,Live Oak,78022,2017,95,0,0,0,1380,-98.13589,28.40578,"EIA-757, Natural Gas Processing Plant Survey"
-98.52959,28.41049,432,Tilden,ETC Field Services LLC,ETC Field Services LLC,Tilden,TX,McMullen,78072,2017,150,98,1250,0,3250,-98.52959,28.41049,"EIA-757, Natural Gas Processing Plant Survey"
-102.22282,31.03752,433,Tippett Plant,ETC Field Services LLC,ETC Field Services LLC,McCamey,TX,Upton,79752,2017,55,50,1200,0,7500,-102.22282,31.03752,"EIA-757, Natural Gas Processing Plant Survey"
-89.83321,29.86624,434,Toca Gas Plant,Enterprise Gas Processing LLC,Enterprise Gas Processing LLC,St. Bernard,LA,St. Bernard,70085,2017,1100,150,1096,0,0,-89.83321,29.86624,"EIA-757, Natural Gas Processing Plant Survey"
-97.88872,32.34394,435,Tolar Plant/Black Diamond,"DCP Operating Company, LP","DCP Operating Company, LP",Tolar,TX,Hood,76476,2017,120,20,1270,0,1430,-97.88872,32.34394,"EIA-757, Natural Gas Processing Plant Survey"
-101.93056,30.86889,436,Tract 75 Gas Plant,Kinder Morgan Production Company LLC,Kinder Morgan Production Company LLC,Iraan,TX,Pecos,79744,2017,110,73,300,0,0,-101.93056,30.86889,"EIA-757, Natural Gas Processing Plant Survey"
-96.26194,31.44472,437,Trend Gathering Farrar plant,XTO Energy,"XTO Energy, Inc.",Jewett,TX,Limestone,75846,2017,330,110,1000,0,3000,-96.26194,31.44472,"EIA-757, Natural Gas Processing Plant Survey"
-96.22039,31.62764,438,Trend Teague Plant,Trend Gathering and Treating L.P.,Trend Gathering and Treating L.P.,Teague,TX,Freestone,75860,2017,330,200,1025,0,3000,-96.22039,31.62764,"EIA-757, Natural Gas Processing Plant Survey"
-96.08485,32.12756,439,Trinidad,Enbridge G & P (East Texas) L.P.,Enbridge G & P (East Texas) L.P.,Trinidad,TX,Henderson,75163,2017,65,52,1049,0,476,-96.08485,32.12756,"EIA-757, Natural Gas Processing Plant Survey"
-96.29188,34.58579,440,Tupelo Gas Plant,Targa Resources,Targa Resources,Coalgate,OK,Coal,74538,2017,125,122,1223,0,0,-96.29188,34.58579,"EIA-757, Natural Gas Processing Plant Survey"
-95.43441,32.38384,441,Tyler Gas Plant,Aethon United Gas LP,Aethon Energy Operating LLC,Tyler,TX,Smith,75704,2017,1,1,0,0,210,-95.43441,32.38384,"EIA-757, Natural Gas Processing Plant Survey"
-95.62501,32.53861,442,Van Plant,UNOCAL - CNAEP,UNOCAL - CNAEP,Van,TX,Van Zandt,75790,2017,1.2,0.5,1370,0,1142,-95.62501,32.53861,"EIA-757, Natural Gas Processing Plant Survey"
-97.68911,34.46139,443,Velma Gas Plant,Targa Pipeline Mid-Continent LLC,Targa Pipeline Mid-Continent LLC,Velma,OK,Stephens,73491,2017,160,151,1210,0,4500,-97.68911,34.46139,"EIA-757, Natural Gas Processing Plant Survey"
-89.38501,29.23722,444,Venice Gas Plant,"Targa Resources, LLC",Targa Resources,Venice,LA,Plaquemines,70091,2017,750,450,1180,0,0,-89.38501,29.23722,"EIA-757, Natural Gas Processing Plant Survey"
-119.27017,34.3122,445,Venture Gas Plant 7,Aera Energy LLC,Aera Energy LLC,Ventura,CA,Ventura,93001,2017,12,8,1168,0,1400,-119.27017,34.3122,"EIA-757, Natural Gas Processing Plant Survey"
-108.76185,41.05852,446,Vermillion Gas Plant,Andeavor Field Services LLC,Andeavor Field Services LLC,Rock Springs,WY,Sweetwater,82934,2017,57,49,1068,0,685,-108.76185,41.05852,"EIA-757, Natural Gas Processing Plant Survey"
-93.9871,32.8716,447,Vivian Gas Processing,"Caruthers Producing Co, Inc","Caruthers Producing Co, Inc",Vivian,LA,Caddo, ,2017,1,1,0,0,714,-93.9871,32.8716,"EIA-757, Natural Gas Processing Plant Survey"
-103.08667,31.26889,448,Waha Plant,ETC Field Services LLC,ETC Field Services LLC,Pecos,TX,Pecos,79730,2017,120,120,1184,0,0,-103.08667,31.26889,"EIA-757, Natural Gas Processing Plant Survey"
-94.07278,32.4717,449,Waskom Gas Processing,"Enable Midsteam Partners, LP",Enable Midstream Partners,Waskom,TX,Harrision,75692,2017,250,210,1080,0,48000,-94.07278,32.4717,"EIA-757, Natural Gas Processing Plant Survey"
-102.75465,33.01171,450,Wasson ODC Unit CO2 Removal Plant,Occidental Permian Ltd 04,Occidental Permian Ltd,Denver City,TX,Yoakum,79323,2017,100,96,0,0,4300,-102.75465,33.01171,"EIA-757, Natural Gas Processing Plant Survey"
-103.77944,47.92216,451,Watford City Gas Plant,Hiland Partners Holdings  LLC,Kinder Morgan,Alexander,ND,McKenzie,58831,2017,85,57,1445,0,61429,-103.77944,47.92216,"EIA-757, Natural Gas Processing Plant Survey"
-104.68154,39.74643,452,Wattenberg Gas Plant,Anadarko Petroleum Company, ,Aurora,CO,Adams,80019,2017,250,183,1259,0,9500,-104.68154,39.74643,"EIA-757, Natural Gas Processing Plant Survey"
-98.76633,36.6517,453,Waynoka Plant,"TPL Mid-Continent Westok, LLC","Tpl Mid-Continent Westok, LLC",Alva,OK,Woods,73717,2017,430,340,1130,0,0,-98.76633,36.6517,"EIA-757, Natural Gas Processing Plant Survey"
-80.80767,39.32406,454,West Union NGL Extraction Plant,"Dominion Gathering and Processing, Inc.","Dominion Energy Transmission, Inc.",West Union,WV,Doddridge,26456,2017,35,0,0,0,2514,-80.80767,39.32406,"EIA-757, Natural Gas Processing Plant Survey"
-96.16917,35.14001,455,Wetumka,Enable Products LLC,Enable Products LLC,Wetumka,OK,Hughes,74883,2017,60,36,1190,0,2857,-96.16917,35.14001,"EIA-757, Natural Gas Processing Plant Survey"
-100.28687,35.52995,456,Wheeler,Enable Products LLC,Enable Products LLC,Wheeler,TX,Wheeler,79096,2017,200,200,1215,0,0,-100.28687,35.52995,"EIA-757, Natural Gas Processing Plant Survey"
-100.12995,35.40955,457,Wheeler,ETC Field Services LLC,ETC Field Services LLC,Kelton,TX,Wheeler,79096,2017,60,35,1195,0,0,-100.12995,35.40955,"EIA-757, Natural Gas Processing Plant Survey"
-78.80403,41.61204,458,Whitetail Gas Plant,"Elkhorn Investments, LLC",Elkhorn Gas Processing,Kane,PA,Elk,16735,2017,6,2,1150,0,1214,-78.80403,41.61204,"EIA-757, Natural Gas Processing Plant Survey"
-103.98048,40.24727,459,Wiggins Gas Processing Plant, ,Western Operating Company,Fort Morgan,CO,Morgan,80701,2017,3,0.05,1400,0,762,-103.98048,40.24727,"EIA-757, Natural Gas Processing Plant Survey"
-96.67954,29.3361,460,Wilcox Gas Plant,"DCP Operating Company, LP","DCP Operating Company, LP",Hallettsville,TX,Lavaca,77964,2017,240,135,1102,0,9857,-96.67954,29.3361,"EIA-757, Natural Gas Processing Plant Survey"
-103.19239,47.8587,461,Wild Basin,Oasis Petroleum,Oasis Midstream Partners,Watford City,ND,McKenzie,58854,2017,79,79,1500,0,17143,-103.19239,47.8587,"EIA-757, Natural Gas Processing Plant Survey"
-87.40317,31.41873,462,Wildfork Plant,Gas Processors Inc,Gas Processors Inc,Frisco City,AL,Monroe,36445,2017,9,9,1275,0,2857,-87.40317,31.41873,"EIA-757, Natural Gas Processing Plant Survey"
-102.8263,33.02802,463,Willard CO2 Recovery Plant,"Oxy Usa Wtp, LP 00",OXY,Denver City,TX,Yoakum,79323,2017,96,94,185,0,1500,-102.8263,33.02802,"EIA-757, Natural Gas Processing Plant Survey"
-88.17722,30.40056,464,Williams Mobile Bay Processing Plant,"The Williams Companies, Inc.","The Williams Companies, Inc.",Coden,AL,Mobile,36523,2017,690,350,1135,0,0,-88.17722,30.40056,"EIA-757, Natural Gas Processing Plant Survey"
-108.24206,39.83514,465,Willow Creek,Williams,"Williams Midstream Services, LLC",Rifle,CO,Rio Blanco,81650,2017,495,471,0,0,0,-108.24206,39.83514,"EIA-757, Natural Gas Processing Plant Survey"
-107.91925,40.1974,466,Wilson Creek Gas Plant,Chevron,Chevron,Meeker,CO,Rio blanco,81641,2017,1,1,1545,0,2926,-107.91925,40.1974,"EIA-757, Natural Gas Processing Plant Survey"
-100.22911,35.69436,467,Woodall Plant,ETC Field Services LLC,ETC Field Services LLC,Briscoe,TX,Hemphill,79011,2017,60,32,1190,0,430,-100.22911,35.69436,"EIA-757, Natural Gas Processing Plant Survey"
-97.28166,28.17598,468,Woodsboro Plant,Southcross Energy GP LLC,Southcross Processing LLC,Woodsboro,TX,Refugio,78393,2017,200,139,1206,0,2000,-97.28166,28.17598,"EIA-757, Natural Gas Processing Plant Survey"
-99.4794,36.44198,469,Woodward Natural Gas Processing,ONEOK,ONEOK,Woodward,OK,Woodward,73802,2017,70,65,1150,0,65500,-99.4794,36.44198,"EIA-757, Natural Gas Processing Plant Survey"
-107.91144,44.1305,470,Worland Plant,Devon Energy Production Co LP,Devon Energy Production Co LP,"Worland,",WY,Washakie,82401,2017,10,5,1287,0,9200,-107.91144,44.1305,"EIA-757, Natural Gas Processing Plant Survey"
-98.07189,33.09954,471,Worsham-Steed Cryogenic Gas Plant,"Nortex Midstream Partners, LLC","Worsham-Steed Gas Storage, LLC",Perrin,TX,Jack,76486,2017,60,41,950,0,0,-98.07189,33.09954,"EIA-757, Natural Gas Processing Plant Survey"
-102.8459,32.92289,472,WPMT NGL,Occidental Permian Ltd 04,Occidental Permian Ltd,Denver City,TX,Yoakum,79323,2017,40,11,891,0,0,-102.8459,32.92289,"EIA-757, Natural Gas Processing Plant Survey"
-88.12851,30.40366,473,Yellowhammer Gas Plant,"W&T Offshore, Inc.","W&T Offshore, Inc.",Coden,AL,Mobile,36523,2017,200,60,1110,0,7142,-88.12851,30.40366,"EIA-757, Natural Gas Processing Plant Survey"
-103.39068,40.69566,474,Yenter Gas Plant,"Sterling Energy Investments, LLC","Sterling Energy Investments, LLC",Sterling,CO,Logan,80751,2017,11,1,1396,0,5394,-103.39068,40.69566,"EIA-757, Natural Gas Processing Plant Survey"
-97.11031,29.34153,475,Yoakum Gas Processing Plant,Enterprise Hydrocarbons LP,Enterprise Products Operating LLC,Yoakum,TX,Lavaca,77995,2017,900,900,1250,0,0,-97.11031,29.34153,"EIA-757, Natural Gas Processing Plant Survey"
-108.76939,44.20798,476,Yu Bench,"Rock Oil And Gas Assets, LLC","Cumberland Operating, LLC",Cody,WY,Park,82414,2017,4,1,1115,0,714,-108.76939,44.20798,"EIA-757, Natural Gas Processing Plant Survey"
-103.81173,32.64177,477,Zia II Plant,"DCP Operating Company, LP","DCP Operating Company, LP",Hobbs,NM,Lea,88240,2017,220,180,1120,0,3950,-103.81173,32.64177,"EIA-757, Natural Gas Processing Plant Survey"
-100.14833,35.60501,478,Zybach,Enbridge Pipelines (Texas Gathering) L.P., ,Briscoe,TX,Wheeler,79011,2017,164,69,1169,0,952,-100.14833,35.60501,"EIA-757, Natural Gas Processing Plant Survey"
